{
"type": "FeatureCollection",
"name": "EdinburghPubs",
"crs": { "type": "name", "properties": { "name": "urn:ogc:def:crs:OGC:1.3:CRS84" } },
"features": [
{ "type": "Feature", "properties": { "id": 25346760, "addr:street": null, "addr:housenumber": null, "denotation": null, "name": "Swany's", "amenity": "pub", "naptan:CommonName": null, "opening_hours": null, "capacity": null, "description": null }, "geometry": { "type": "Point", "coordinates": [ -3.1789256, 55.9348007 ] } },
{ "type": "Feature", "properties": { "id": 25346762, "addr:street": "Causewayside", "addr:housenumber": "233-235", "denotation": null, "name": "Old Bell Inn", "amenity": "pub", "naptan:CommonName": null, "opening_hours": null, "capacity": null, "description": null }, "geometry": { "type": "Point", "coordinates": [ -3.1790559, 55.9349346 ] } },
{ "type": "Feature", "properties": { "id": 25580807, "addr:street": null, "addr:housenumber": null, "denotation": null, "name": "Four In Hand", "amenity": "pub", "naptan:CommonName": null, "opening_hours": null, "capacity": null, "description": null }, "geometry": { "type": "Point", "coordinates": [ -3.1707646, 55.9622881 ] } },
{ "type": "Feature", "properties": { "id": 30452540, "addr:street": "The Causeway", "addr:housenumber": "43-45", "denotation": null, "name": "Sheep Heid Inn", "amenity": "pub", "naptan:CommonName": null, "opening_hours": "Mo-Th 11:00-23:00, Fr-Sa 11:00-24:00; Su 12:30-11:00", "capacity": null, "description": null }, "geometry": { "type": "Point", "coordinates": [ -3.1485445, 55.9419785 ] } },
{ "type": "Feature", "properties": { "id": 33179113, "addr:street": "Lothian Road", "addr:housenumber": "50", "denotation": null, "name": "BrewDog Lothian Road", "amenity": "pub", "naptan:CommonName": null, "opening_hours": null, "capacity": null, "description": null }, "geometry": { "type": "Point", "coordinates": [ -3.2065848, 55.9474969 ] } },
{ "type": "Feature", "properties": { "id": 33185107, "addr:street": "West Register Street", "addr:housenumber": "1-3", "denotation": null, "name": "Guildford Arms", "amenity": "pub", "naptan:CommonName": null, "opening_hours": null, "capacity": null, "description": "Victorian pub including the Gallery restaurant upstairs" }, "geometry": { "type": "Point", "coordinates": [ -3.1901937, 55.9536732 ] } },
{ "type": "Feature", "properties": { "id": 33214208, "addr:street": "Brougham Place", "addr:housenumber": "15", "denotation": null, "name": "The International Bar", "amenity": "pub", "naptan:CommonName": null, "opening_hours": null, "capacity": null, "description": null }, "geometry": { "type": "Point", "coordinates": [ -3.2011784, 55.9423459 ] } },
{ "type": "Feature", "properties": { "id": 41483825, "addr:street": "Rose Street", "addr:housenumber": "202", "denotation": null, "name": "Scotts", "amenity": "pub", "naptan:CommonName": null, "opening_hours": null, "capacity": null, "description": null }, "geometry": { "type": "Point", "coordinates": [ -3.2051963, 55.9513006 ] } },
{ "type": "Feature", "properties": { "id": 41483829, "addr:street": "Rose Street", "addr:housenumber": "167", "denotation": null, "name": "1780", "amenity": "pub", "naptan:CommonName": null, "opening_hours": "Mo-Fr 12:00-01:00; Sa-Su 10:00-01:00", "capacity": null, "description": null }, "geometry": { "type": "Point", "coordinates": [ -3.2053144, 55.9514509 ] } },
{ "type": "Feature", "properties": { "id": 41483832, "addr:street": "Rose Street", "addr:housenumber": "159", "denotation": null, "name": "Dirty Dick's", "amenity": "pub", "naptan:CommonName": null, "opening_hours": null, "capacity": null, "description": null }, "geometry": { "type": "Point", "coordinates": [ -3.2050092, 55.9515013 ] } },
{ "type": "Feature", "properties": { "id": 41483835, "addr:street": "Rose Street", "addr:housenumber": "170", "denotation": null, "name": "Rose & Crown", "amenity": "pub", "naptan:CommonName": null, "opening_hours": null, "capacity": null, "description": null }, "geometry": { "type": "Point", "coordinates": [ -3.2039252, 55.9515155 ] } },
{ "type": "Feature", "properties": { "id": 41483839, "addr:street": "Rose Street", "addr:housenumber": "133", "denotation": null, "name": "The Shoogly Peg", "amenity": "pub", "naptan:CommonName": null, "opening_hours": "Mo-Th 11:00-23:00; Fr-Sa 11:00-00:00; Su 12:30-23:00", "capacity": null, "description": null }, "geometry": { "type": "Point", "coordinates": [ -3.2039852, 55.9516703 ] } },
{ "type": "Feature", "properties": { "id": 41483843, "addr:street": "Rose Street", "addr:housenumber": "168", "denotation": null, "name": "The Black Cat", "amenity": "pub", "naptan:CommonName": null, "opening_hours": null, "capacity": null, "description": null }, "geometry": { "type": "Point", "coordinates": [ -3.2036518, 55.9515611 ] } },
{ "type": "Feature", "properties": { "id": 41483847, "addr:street": "Rose Street", "addr:housenumber": "152-154", "denotation": null, "name": "The Kenilworth", "amenity": "pub", "naptan:CommonName": null, "opening_hours": null, "capacity": null, "description": null }, "geometry": { "type": "Point", "coordinates": [ -3.2022759, 55.9517885 ] } },
{ "type": "Feature", "properties": { "id": 41483854, "addr:street": "Rose Street", "addr:housenumber": "100", "denotation": null, "name": "Auld Hundred", "amenity": "pub", "naptan:CommonName": null, "opening_hours": null, "capacity": null, "description": null }, "geometry": { "type": "Point", "coordinates": [ -3.1993756, 55.9522826 ] } },
{ "type": "Feature", "properties": { "id": 41483858, "addr:street": "Rose Street", "addr:housenumber": "55-57", "denotation": null, "name": "Rose Street Brewery", "amenity": "pub", "naptan:CommonName": null, "opening_hours": "Mo-Fr 11:00-23:00; Sa 11:00-23:30; Su 11:00-22:30", "capacity": null, "description": null }, "geometry": { "type": "Point", "coordinates": [ -3.1989321, 55.9525442 ] } },
{ "type": "Feature", "properties": { "id": 41483863, "addr:street": "Rose Street", "addr:housenumber": "49", "denotation": null, "name": "The Black Rose Tavern", "amenity": "pub", "naptan:CommonName": null, "opening_hours": null, "capacity": null, "description": null }, "geometry": { "type": "Point", "coordinates": [ -3.1981001, 55.9526844 ] } },
{ "type": "Feature", "properties": { "id": 41483872, "addr:street": "Rose Street", "addr:housenumber": "21-23-25", "denotation": null, "name": "Milnes of Rose street", "amenity": "pub", "naptan:CommonName": null, "opening_hours": null, "capacity": null, "description": null }, "geometry": { "type": "Point", "coordinates": [ -3.1964321, 55.9529632 ] } },
{ "type": "Feature", "properties": { "id": 52137560, "addr:street": "Comiston Road", "addr:housenumber": "1-3-5", "denotation": null, "name": "The Hermitage", "amenity": "pub", "naptan:CommonName": null, "opening_hours": "Mo-Th 12:00-00:00; Fr-Sa 12:00-01:00; Su 12:00-00:00", "capacity": null, "description": null }, "geometry": { "type": "Point", "coordinates": [ -3.2095437, 55.924695 ] } },
{ "type": "Feature", "properties": { "id": 57542915, "addr:street": "West Register Street", "addr:housenumber": "19", "denotation": null, "name": "Cafe Royal", "amenity": "pub", "naptan:CommonName": null, "opening_hours": "Mo-We 11:00-23:00; Th 11:00-00:00; Fr-Sa 11:00-01:00; Su 11:00-23:00", "capacity": null, "description": null }, "geometry": { "type": "Point", "coordinates": [ -3.1904838, 55.9537951 ] } },
{ "type": "Feature", "properties": { "id": 57543992, "addr:street": "Cumberland Street", "addr:housenumber": "1-3", "denotation": null, "name": "Cumberland Bar", "amenity": "pub", "naptan:CommonName": null, "opening_hours": null, "capacity": null, "description": null }, "geometry": { "type": "Point", "coordinates": [ -3.197166, 55.9589659 ] } },
{ "type": "Feature", "properties": { "id": 244049913, "addr:street": "Maxwell Street", "addr:housenumber": "1", "denotation": null, "name": "Bennets", "amenity": "pub", "naptan:CommonName": null, "opening_hours": null, "capacity": null, "description": null }, "geometry": { "type": "Point", "coordinates": [ -3.2095223, 55.9265024 ] } },
{ "type": "Feature", "properties": { "id": 248681867, "addr:street": "Clerk Street", "addr:housenumber": "18-22", "denotation": null, "name": "The Doghouse", "amenity": "pub", "naptan:CommonName": null, "opening_hours": null, "capacity": null, "description": null }, "geometry": { "type": "Point", "coordinates": [ -3.182488, 55.9427354 ] } },
{ "type": "Feature", "properties": { "id": 249807817, "addr:street": "Restalrig Road", "addr:housenumber": "137", "denotation": null, "name": "Torino", "amenity": "pub", "naptan:CommonName": null, "opening_hours": null, "capacity": null, "description": null }, "geometry": { "type": "Point", "coordinates": [ -3.155494, 55.9659619 ] } },
{ "type": "Feature", "properties": { "id": 249967014, "addr:street": "High Street", "addr:housenumber": "82", "denotation": null, "name": "The Inn On The Mile", "amenity": "pub", "naptan:CommonName": null, "opening_hours": null, "capacity": null, "description": null }, "geometry": { "type": "Point", "coordinates": [ -3.1873006, 55.9500405 ] } },
{ "type": "Feature", "properties": { "id": 250351299, "addr:street": "Infirmary Street", "addr:housenumber": "1", "denotation": null, "name": "The Royal Oak", "amenity": "pub", "naptan:CommonName": null, "opening_hours": null, "capacity": null, "description": null }, "geometry": { "type": "Point", "coordinates": [ -3.1861969, 55.9480679 ] } },
{ "type": "Feature", "properties": { "id": 255760161, "addr:street": "St Leonard's Street", "addr:housenumber": "23-25", "denotation": null, "name": "The Auld Hoose", "amenity": "pub", "naptan:CommonName": null, "opening_hours": null, "capacity": null, "description": null }, "geometry": { "type": "Point", "coordinates": [ -3.1802833, 55.9434922 ] } },
{ "type": "Feature", "properties": { "id": 288902893, "addr:street": "Morningside Road", "addr:housenumber": "168", "denotation": null, "name": "The Merlin", "amenity": "pub", "naptan:CommonName": null, "opening_hours": "Mo-Th 10:00-23:00; Fr-Sa 10:00-01:00; Su 11:00-23:00", "capacity": null, "description": null }, "geometry": { "type": "Point", "coordinates": [ -3.2098989, 55.9292293 ] } },
{ "type": "Feature", "properties": { "id": 307639901, "addr:street": "St Stephen Street", "addr:housenumber": "2-4", "denotation": null, "name": "The Bailie", "amenity": "pub", "naptan:CommonName": null, "opening_hours": "Mo-Th 11:00-00:00; Fr-Sa 11:00-01:00; Su 12:30-00:00", "capacity": null, "description": null }, "geometry": { "type": "Point", "coordinates": [ -3.2071208, 55.9574763 ] } },
{ "type": "Feature", "properties": { "id": 319517883, "addr:street": null, "addr:housenumber": null, "denotation": null, "name": "John Leslie", "amenity": "pub", "naptan:CommonName": null, "opening_hours": null, "capacity": null, "description": null }, "geometry": { "type": "Point", "coordinates": [ -3.1780885, 55.9339659 ] } },
{ "type": "Feature", "properties": { "id": 322064154, "addr:street": "Grange Road", "addr:housenumber": "1", "denotation": null, "name": "No. 1 Grange Road", "amenity": "pub", "naptan:CommonName": null, "opening_hours": null, "capacity": null, "description": null }, "geometry": { "type": "Point", "coordinates": [ -3.1806435, 55.9368168 ] } },
{ "type": "Feature", "properties": { "id": 322777306, "addr:street": "Young Street", "addr:housenumber": "20", "denotation": null, "name": "The Cambridge Bar", "amenity": "pub", "naptan:CommonName": null, "opening_hours": "Mo-We 12:00-23:00; Th 12:00-00:00; Fr-Sa 12:00-01:00; Su 12:00-23:00", "capacity": null, "description": "The Cambridge Bar is a free house specialising in craft beers & ales and gourmet homemade burgers" }, "geometry": { "type": "Point", "coordinates": [ -3.2060087, 55.9527434 ] } },
{ "type": "Feature", "properties": { "id": 322777437, "addr:street": "Young Street", "addr:housenumber": "8", "denotation": null, "name": "Oxford Bar", "amenity": "pub", "naptan:CommonName": null, "opening_hours": null, "capacity": null, "description": null }, "geometry": { "type": "Point", "coordinates": [ -3.204715, 55.9529635 ] } },
{ "type": "Feature", "properties": { "id": 333159410, "addr:street": "Broughton Street", "addr:housenumber": "113", "denotation": null, "name": "The Cask and Barrel", "amenity": "pub", "naptan:CommonName": null, "opening_hours": "Mo-We 11:00-00:30; Th-Sa 11:00-01:00; Su 12:30-00:30", "capacity": null, "description": null }, "geometry": { "type": "Point", "coordinates": [ -3.1902891, 55.9590475 ] } },
{ "type": "Feature", "properties": { "id": 333159417, "addr:street": "Montrose Terrace", "addr:housenumber": "2", "denotation": null, "name": "The Regent", "amenity": "pub", "naptan:CommonName": null, "opening_hours": null, "capacity": null, "description": null }, "geometry": { "type": "Point", "coordinates": [ -3.1719415, 55.9563297 ] } },
{ "type": "Feature", "properties": { "id": 345251451, "addr:street": "St Leonard's Street", "addr:housenumber": "81-85", "denotation": null, "name": "The Montebar", "amenity": "pub", "naptan:CommonName": null, "opening_hours": null, "capacity": null, "description": null }, "geometry": { "type": "Point", "coordinates": [ -3.1791766, 55.9421469 ] } },
{ "type": "Feature", "properties": { "id": 366190942, "addr:street": "West Nicolson Street", "addr:housenumber": "38", "denotation": null, "name": "Pear Tree", "amenity": "pub", "naptan:CommonName": null, "opening_hours": null, "capacity": null, "description": null }, "geometry": { "type": "Point", "coordinates": [ -3.1852809, 55.9444398 ] } },
{ "type": "Feature", "properties": { "id": 366190983, "addr:street": null, "addr:housenumber": null, "denotation": null, "name": "Blind Poet", "amenity": "pub", "naptan:CommonName": null, "opening_hours": null, "capacity": null, "description": null }, "geometry": { "type": "Point", "coordinates": [ -3.1852171, 55.9445207 ] } },
{ "type": "Feature", "properties": { "id": 366191857, "addr:street": "Buccleuch Street", "addr:housenumber": "93-95", "denotation": null, "name": "Dagda", "amenity": "pub", "naptan:CommonName": null, "opening_hours": null, "capacity": null, "description": null }, "geometry": { "type": "Point", "coordinates": [ -3.1839282, 55.942148 ] } },
{ "type": "Feature", "properties": { "id": 366191902, "addr:street": "Buccleuch Street", "addr:housenumber": "42-44", "denotation": null, "name": "Sofi's Southside", "amenity": "pub", "naptan:CommonName": null, "opening_hours": null, "capacity": null, "description": null }, "geometry": { "type": "Point", "coordinates": [ -3.1845678, 55.9427088 ] } },
{ "type": "Feature", "properties": { "id": 367085451, "addr:street": "Polwarth Crescent", "addr:housenumber": "35", "denotation": null, "name": "The Polwarth Tavern", "amenity": "pub", "naptan:CommonName": null, "opening_hours": "Mo-Su 12:00-01:00", "capacity": null, "description": null }, "geometry": { "type": "Point", "coordinates": [ -3.2181727, 55.9381591 ] } },
{ "type": "Feature", "properties": { "id": 367085453, "addr:street": "Yeaman Place", "addr:housenumber": "30", "denotation": null, "name": "The Golden Rule", "amenity": "pub", "naptan:CommonName": null, "opening_hours": null, "capacity": null, "description": null }, "geometry": { "type": "Point", "coordinates": [ -3.2187847, 55.9390574 ] } },
{ "type": "Feature", "properties": { "id": 367085455, "addr:street": "Angle Park Terrace", "addr:housenumber": "1-2-3", "denotation": null, "name": "The Athletic Arms\/Diggers", "amenity": "pub", "naptan:CommonName": null, "opening_hours": null, "capacity": null, "description": null }, "geometry": { "type": "Point", "coordinates": [ -3.2238438, 55.9389512 ] } },
{ "type": "Feature", "properties": { "id": 367085460, "addr:street": "Dundee Street", "addr:housenumber": "131", "denotation": null, "name": "The Fountain", "amenity": "pub", "naptan:CommonName": null, "opening_hours": null, "capacity": null, "description": null }, "geometry": { "type": "Point", "coordinates": [ -3.2179484, 55.9402871 ] } },
{ "type": "Feature", "properties": { "id": 368877704, "addr:street": null, "addr:housenumber": null, "denotation": null, "name": "McCowans", "amenity": "pub", "naptan:CommonName": null, "opening_hours": null, "capacity": null, "description": null }, "geometry": { "type": "Point", "coordinates": [ -3.2180407, 55.9407101 ] } },
{ "type": "Feature", "properties": { "id": 418637797, "addr:street": "Thistle Street", "addr:housenumber": "39", "denotation": null, "name": "Thistle Street Bar", "amenity": "pub", "naptan:CommonName": null, "opening_hours": null, "capacity": null, "description": null }, "geometry": { "type": "Point", "coordinates": [ -3.1989823, 55.9541177 ] } },
{ "type": "Feature", "properties": { "id": 444739625, "addr:street": null, "addr:housenumber": null, "denotation": null, "name": "The Orchard", "amenity": "pub", "naptan:CommonName": null, "opening_hours": null, "capacity": null, "description": null }, "geometry": { "type": "Point", "coordinates": [ -3.2006252, 55.9633687 ] } },
{ "type": "Feature", "properties": { "id": 446392411, "addr:street": "Lochend Road South", "addr:housenumber": null, "denotation": null, "name": "The Loch Inn", "amenity": "pub", "naptan:CommonName": null, "opening_hours": null, "capacity": null, "description": null }, "geometry": { "type": "Point", "coordinates": [ -3.1593614, 55.9626907 ] } },
{ "type": "Feature", "properties": { "id": 474025625, "addr:street": null, "addr:housenumber": null, "denotation": null, "name": "Pleasance Bar", "amenity": "pub", "naptan:CommonName": null, "opening_hours": null, "capacity": null, "description": null }, "geometry": { "type": "Point", "coordinates": [ -3.1815097, 55.9477654 ] } },
{ "type": "Feature", "properties": { "id": 474049045, "addr:street": "Lauriston Place", "addr:housenumber": "105", "denotation": null, "name": "The Brauhaus", "amenity": "pub", "naptan:CommonName": null, "opening_hours": null, "capacity": null, "description": null }, "geometry": { "type": "Point", "coordinates": [ -3.2019494, 55.9442459 ] } },
{ "type": "Feature", "properties": { "id": 482352491, "addr:street": "Ardmillan Terrace", "addr:housenumber": "9", "denotation": null, "name": "Ardmillan Hotel", "amenity": "pub", "naptan:CommonName": null, "opening_hours": null, "capacity": null, "description": null }, "geometry": { "type": "Point", "coordinates": [ -3.2261155, 55.9383618 ] } },
{ "type": "Feature", "properties": { "id": 482428745, "addr:street": "Gorgie Road", "addr:housenumber": "92", "denotation": null, "name": "Tynecastle Arms", "amenity": "pub", "naptan:CommonName": null, "opening_hours": null, "capacity": null, "description": null }, "geometry": { "type": "Point", "coordinates": [ -3.2302193, 55.9386065 ] } },
{ "type": "Feature", "properties": { "id": 482432721, "addr:street": "Leven Street", "addr:housenumber": "8", "denotation": null, "name": "Bennets Bar", "amenity": "pub", "naptan:CommonName": null, "opening_hours": null, "capacity": null, "description": null }, "geometry": { "type": "Point", "coordinates": [ -3.2032072, 55.9417361 ] } },
{ "type": "Feature", "properties": { "id": 482901672, "addr:street": "Slateford Road", "addr:housenumber": "99", "denotation": null, "name": "The Shandon", "amenity": "pub", "naptan:CommonName": null, "opening_hours": null, "capacity": null, "description": null }, "geometry": { "type": "Point", "coordinates": [ -3.2348734, 55.9332796 ] } },
{ "type": "Feature", "properties": { "id": 482902104, "addr:street": null, "addr:housenumber": null, "denotation": null, "name": "Gray's Mill", "amenity": "pub", "naptan:CommonName": null, "opening_hours": null, "capacity": null, "description": null }, "geometry": { "type": "Point", "coordinates": [ -3.2350015, 55.9332118 ] } },
{ "type": "Feature", "properties": { "id": 483034256, "addr:street": "Spittal Street", "addr:housenumber": "2", "denotation": null, "name": "The Blue Blazer", "amenity": "pub", "naptan:CommonName": null, "opening_hours": null, "capacity": null, "description": null }, "geometry": { "type": "Point", "coordinates": [ -3.2031782, 55.9459463 ] } },
{ "type": "Feature", "properties": { "id": 483035255, "addr:street": "West Port", "addr:housenumber": "27-31", "denotation": null, "name": "52 Canoes Tiki Den", "amenity": "pub", "naptan:CommonName": null, "opening_hours": null, "capacity": null, "description": null }, "geometry": { "type": "Point", "coordinates": [ -3.1984915, 55.9466693 ] } },
{ "type": "Feature", "properties": { "id": 483044126, "addr:street": "Cowgate", "addr:housenumber": "73", "denotation": null, "name": "Sneaky Pete's", "amenity": "pub", "naptan:CommonName": null, "opening_hours": null, "capacity": "100", "description": null }, "geometry": { "type": "Point", "coordinates": [ -3.191479, 55.9481713 ] } },
{ "type": "Feature", "properties": { "id": 483045947, "addr:street": "Cowgate", "addr:housenumber": "104", "denotation": null, "name": "Three Sisters", "amenity": "pub", "naptan:CommonName": null, "opening_hours": "Mo-We 07:00-01:00; Th-Sa 07:00-03:00; Su 07:00-01:00", "capacity": null, "description": null }, "geometry": { "type": "Point", "coordinates": [ -3.1899874, 55.94823 ] } },
{ "type": "Feature", "properties": { "id": 504318323, "addr:street": "West Preston Street", "addr:housenumber": "1", "denotation": null, "name": "Drouthy Neebors", "amenity": "pub", "naptan:CommonName": null, "opening_hours": null, "capacity": null, "description": null }, "geometry": { "type": "Point", "coordinates": [ -3.1817525, 55.9391025 ] } },
{ "type": "Feature", "properties": { "id": 507247282, "addr:street": "West Crosscauseway", "addr:housenumber": "44", "denotation": null, "name": "Greenmantle", "amenity": "pub", "naptan:CommonName": null, "opening_hours": null, "capacity": null, "description": null }, "geometry": { "type": "Point", "coordinates": [ -3.1837414, 55.9438995 ] } },
{ "type": "Feature", "properties": { "id": 511213047, "addr:street": "Cockburn Street", "addr:housenumber": "11-15", "denotation": null, "name": "The Malt Shovel", "amenity": "pub", "naptan:CommonName": null, "opening_hours": null, "capacity": null, "description": null }, "geometry": { "type": "Point", "coordinates": [ -3.1906398, 55.950658 ] } },
{ "type": "Feature", "properties": { "id": 514064329, "addr:street": "St Vincent Street", "addr:housenumber": "11", "denotation": null, "name": "St. Vincent", "amenity": "pub", "naptan:CommonName": null, "opening_hours": "Mo-Sa 11:00-01:00; Su 12:30-01:00", "capacity": null, "description": null }, "geometry": { "type": "Point", "coordinates": [ -3.203527, 55.9580163 ] } },
{ "type": "Feature", "properties": { "id": 526112448, "addr:street": null, "addr:housenumber": null, "denotation": null, "name": "The Kilted Pig", "amenity": "pub", "naptan:CommonName": null, "opening_hours": null, "capacity": null, "description": null }, "geometry": { "type": "Point", "coordinates": [ -3.2297, 55.9279171 ] } },
{ "type": "Feature", "properties": { "id": 570329678, "addr:street": "West Richmond Street", "addr:housenumber": "3-7", "denotation": null, "name": "Southsider", "amenity": "pub", "naptan:CommonName": null, "opening_hours": null, "capacity": null, "description": null }, "geometry": { "type": "Point", "coordinates": [ -3.1837064, 55.9452016 ] } },
{ "type": "Feature", "properties": { "id": 573376870, "addr:street": "Henderson Street", "addr:housenumber": "65", "denotation": null, "name": "Sofi's", "amenity": "pub", "naptan:CommonName": null, "opening_hours": "Mo-Fr 14:00-01:00; Sa 12:00-01:00; Su 13:00-01:00", "capacity": null, "description": null }, "geometry": { "type": "Point", "coordinates": [ -3.1724043, 55.974439 ] } },
{ "type": "Feature", "properties": { "id": 573453335, "addr:street": "Easter Road", "addr:housenumber": "398", "denotation": null, "name": "Persevere", "amenity": "pub", "naptan:CommonName": null, "opening_hours": null, "capacity": null, "description": null }, "geometry": { "type": "Point", "coordinates": [ -3.1679668, 55.9681987 ] } },
{ "type": "Feature", "properties": { "id": 573453389, "addr:street": "Constitution Street", "addr:housenumber": "58", "denotation": null, "name": "Port O' Leith", "amenity": "pub", "naptan:CommonName": null, "opening_hours": null, "capacity": null, "description": null }, "geometry": { "type": "Point", "coordinates": [ -3.1675124, 55.9746156 ] } },
{ "type": "Feature", "properties": { "id": 573458060, "addr:street": "Bonnington Road", "addr:housenumber": "284", "denotation": null, "name": "The Bonnington", "amenity": "pub", "naptan:CommonName": null, "opening_hours": null, "capacity": null, "description": null }, "geometry": { "type": "Point", "coordinates": [ -3.1845659, 55.9690969 ] } },
{ "type": "Feature", "properties": { "id": 574842100, "addr:street": "Duke Street", "addr:housenumber": "142", "denotation": null, "name": "The Parlour", "amenity": "pub", "naptan:CommonName": null, "opening_hours": null, "capacity": null, "description": null }, "geometry": { "type": "Point", "coordinates": [ -3.1680879, 55.9689595 ] } },
{ "type": "Feature", "properties": { "id": 583287439, "addr:street": "Bath Road", "addr:housenumber": "2-4", "denotation": null, "name": "The Pond", "amenity": "pub", "naptan:CommonName": null, "opening_hours": null, "capacity": null, "description": null }, "geometry": { "type": "Point", "coordinates": [ -3.1607188, 55.9745732 ] } },
{ "type": "Feature", "properties": { "id": 585214834, "addr:street": "Deanhaugh Street", "addr:housenumber": "47-49", "denotation": null, "name": "Hectors", "amenity": "pub", "naptan:CommonName": null, "opening_hours": null, "capacity": null, "description": null }, "geometry": { "type": "Point", "coordinates": [ -3.2096834, 55.9587858 ] } },
{ "type": "Feature", "properties": { "id": 585214835, "addr:street": "Raeburn Place", "addr:housenumber": "2-4-6", "denotation": null, "name": "The Stockbridge Tap", "amenity": "pub", "naptan:CommonName": null, "opening_hours": null, "capacity": null, "description": null }, "geometry": { "type": "Point", "coordinates": [ -3.2099661, 55.95895 ] } },
{ "type": "Feature", "properties": { "id": 585214839, "addr:street": "Raeburn Place", "addr:housenumber": "10", "denotation": null, "name": "St Bernards Bar", "amenity": "pub", "naptan:CommonName": null, "opening_hours": null, "capacity": null, "description": null }, "geometry": { "type": "Point", "coordinates": [ -3.2101654, 55.9589789 ] } },
{ "type": "Feature", "properties": { "id": 585214840, "addr:street": "St Stephen Street", "addr:housenumber": "72-78", "denotation": null, "name": "The Antiquary", "amenity": "pub", "naptan:CommonName": null, "opening_hours": "Mo 16:00-23:00; Tu 16:00-00:00; We 12:00-00:00; Th-Fr 12:00-01:00; Sa 11:00-01:00; Su 11:00-00:00", "capacity": null, "description": null }, "geometry": { "type": "Point", "coordinates": [ -3.2061965, 55.957956 ] } },
{ "type": "Feature", "properties": { "id": 585214845, "addr:street": "Canonmills", "addr:housenumber": "1", "denotation": null, "name": "Brandon's of Canonmills", "amenity": "pub", "naptan:CommonName": null, "opening_hours": "Mo-Th 10:00-00:00; Fr-Sa 10:00-01:00; Su 10:00-00:00", "capacity": null, "description": null }, "geometry": { "type": "Point", "coordinates": [ -3.1971875, 55.9623342 ] } },
{ "type": "Feature", "properties": { "id": 585214846, "addr:street": "Broughton Road", "addr:housenumber": "2-4", "denotation": null, "name": "The Other Place", "amenity": "pub", "naptan:CommonName": null, "opening_hours": null, "capacity": null, "description": null }, "geometry": { "type": "Point", "coordinates": [ -3.1962381, 55.9625719 ] } },
{ "type": "Feature", "properties": { "id": 585214847, "addr:street": "Broughton Road", "addr:housenumber": "97-99", "denotation": null, "name": "The Dunedin Bar", "amenity": "pub", "naptan:CommonName": null, "opening_hours": null, "capacity": null, "description": null }, "geometry": { "type": "Point", "coordinates": [ -3.1930464, 55.9642591 ] } },
{ "type": "Feature", "properties": { "id": 585214849, "addr:street": "Bonnington Road", "addr:housenumber": "8", "denotation": null, "name": "Fox's Bar", "amenity": "pub", "naptan:CommonName": null, "opening_hours": null, "capacity": null, "description": null }, "geometry": { "type": "Point", "coordinates": [ -3.1759007, 55.9727043 ] } },
{ "type": "Feature", "properties": { "id": 586188837, "addr:street": "Buchanan Street", "addr:housenumber": "25", "denotation": null, "name": "The Tourmalet", "amenity": "pub", "naptan:CommonName": null, "opening_hours": null, "capacity": null, "description": null }, "geometry": { "type": "Point", "coordinates": [ -3.1765326, 55.963641 ] } },
{ "type": "Feature", "properties": { "id": 587758583, "addr:street": "Mitchell Street", "addr:housenumber": "24", "denotation": null, "name": "Bowler's Rest", "amenity": "pub", "naptan:CommonName": null, "opening_hours": null, "capacity": null, "description": "Eric Morrison Lounge" }, "geometry": { "type": "Point", "coordinates": [ -3.1646538, 55.9738614 ] } },
{ "type": "Feature", "properties": { "id": 588498410, "addr:street": "Leith Walk", "addr:housenumber": "362", "denotation": null, "name": "Brass Monkey", "amenity": "pub", "naptan:CommonName": null, "opening_hours": null, "capacity": null, "description": null }, "geometry": { "type": "Point", "coordinates": [ -3.1778257, 55.9640338 ] } },
{ "type": "Feature", "properties": { "id": 588498411, "addr:street": "Leith Walk", "addr:housenumber": "379", "denotation": null, "name": "Bier Hoose", "amenity": "pub", "naptan:CommonName": null, "opening_hours": null, "capacity": null, "description": null }, "geometry": { "type": "Point", "coordinates": [ -3.1776579, 55.9635684 ] } },
{ "type": "Feature", "properties": { "id": 588498425, "addr:street": "Leith Walk", "addr:housenumber": "298", "denotation": null, "name": "The Harp & Castle", "amenity": "pub", "naptan:CommonName": null, "opening_hours": null, "capacity": null, "description": null }, "geometry": { "type": "Point", "coordinates": [ -3.1766683, 55.9652504 ] } },
{ "type": "Feature", "properties": { "id": 588498429, "addr:street": "Leith Walk", "addr:housenumber": "227", "denotation": null, "name": "Alhambra Bar", "amenity": "pub", "naptan:CommonName": null, "opening_hours": null, "capacity": null, "description": null }, "geometry": { "type": "Point", "coordinates": [ -3.1748044, 55.9666806 ] } },
{ "type": "Feature", "properties": { "id": 588498430, "addr:street": "Leith Walk", "addr:housenumber": "229", "denotation": null, "name": "Boda", "amenity": "pub", "naptan:CommonName": null, "opening_hours": null, "capacity": null, "description": null }, "geometry": { "type": "Point", "coordinates": [ -3.1749285, 55.9665025 ] } },
{ "type": "Feature", "properties": { "id": 588498433, "addr:street": "Leith Walk", "addr:housenumber": "180", "denotation": null, "name": "The Mousetrap", "amenity": "pub", "naptan:CommonName": null, "opening_hours": null, "capacity": null, "description": null }, "geometry": { "type": "Point", "coordinates": [ -3.1748681, 55.9674342 ] } },
{ "type": "Feature", "properties": { "id": 588498443, "addr:street": "Yardheads", "addr:housenumber": "1-2", "denotation": null, "name": "Anderson's Bar", "amenity": "pub", "naptan:CommonName": null, "opening_hours": null, "capacity": null, "description": null }, "geometry": { "type": "Point", "coordinates": [ -3.1732113, 55.9723897 ] } },
{ "type": "Feature", "properties": { "id": 588498445, "addr:street": "Henderson Street", "addr:housenumber": "24", "denotation": null, "name": "Steel Coulson Tap", "amenity": "pub", "naptan:CommonName": null, "opening_hours": null, "capacity": null, "description": null }, "geometry": { "type": "Point", "coordinates": [ -3.1727029, 55.9721688 ] } },
{ "type": "Feature", "properties": { "id": 588498446, "addr:street": "Leith Walk", "addr:housenumber": "7; 9", "denotation": null, "name": "The Central Bar", "amenity": "pub", "naptan:CommonName": null, "opening_hours": null, "capacity": null, "description": null }, "geometry": { "type": "Point", "coordinates": [ -3.1717235, 55.970267 ] } },
{ "type": "Feature", "properties": { "id": 588498449, "addr:street": "Leith Walk", "addr:housenumber": "39", "denotation": null, "name": "Spey Lounge", "amenity": "pub", "naptan:CommonName": null, "opening_hours": null, "capacity": null, "description": null }, "geometry": { "type": "Point", "coordinates": [ -3.1721096, 55.9698189 ] } },
{ "type": "Feature", "properties": { "id": 588498451, "addr:street": "Academy Street", "addr:housenumber": "17-17A", "denotation": null, "name": "Leith Dockers Social Club", "amenity": "pub", "naptan:CommonName": null, "opening_hours": "Mo-Th 11:00-12:00; Fr-Sa 11:00-01:00; Su 10:00-12:00", "capacity": null, "description": null }, "geometry": { "type": "Point", "coordinates": [ -3.1699584, 55.9708178 ] } },
{ "type": "Feature", "properties": { "id": 588498452, "addr:street": "Constitution Street", "addr:housenumber": "159", "denotation": null, "name": "Smoke & Mirrors", "amenity": "pub", "naptan:CommonName": null, "opening_hours": null, "capacity": null, "description": null }, "geometry": { "type": "Point", "coordinates": [ -3.1703563, 55.9711233 ] } },
{ "type": "Feature", "properties": { "id": 607247164, "addr:street": "Constitution Street", "addr:housenumber": "183", "denotation": null, "name": "Foot of The Walk", "amenity": "pub", "naptan:CommonName": null, "opening_hours": null, "capacity": null, "description": null }, "geometry": { "type": "Point", "coordinates": [ -3.1711804, 55.9705925 ] } },
{ "type": "Feature", "properties": { "id": 613227823, "addr:street": "Forrest Road", "addr:housenumber": "32", "denotation": null, "name": "Doctors", "amenity": "pub", "naptan:CommonName": null, "opening_hours": null, "capacity": null, "description": null }, "geometry": { "type": "Point", "coordinates": [ -3.190919, 55.9455179 ] } },
{ "type": "Feature", "properties": { "id": 618460209, "addr:street": "Trafalgar Street", "addr:housenumber": "8", "denotation": null, "name": "The Lord Nelson", "amenity": "pub", "naptan:CommonName": null, "opening_hours": null, "capacity": null, "description": null }, "geometry": { "type": "Point", "coordinates": [ -3.1859101, 55.9737588 ] } },
{ "type": "Feature", "properties": { "id": 623960607, "addr:street": "Bowhill Terrace", "addr:housenumber": "10", "denotation": null, "name": "Spiers Bar", "amenity": "pub", "naptan:CommonName": null, "opening_hours": null, "capacity": null, "description": null }, "geometry": { "type": "Point", "coordinates": [ -3.2074072, 55.9710407 ] } },
{ "type": "Feature", "properties": { "id": 626986693, "addr:street": "High Street", "addr:housenumber": "127", "denotation": null, "name": "The Royal Mile", "amenity": "pub", "naptan:CommonName": null, "opening_hours": null, "capacity": null, "description": null }, "geometry": { "type": "Point", "coordinates": [ -3.1867667, 55.9503992 ] } },
{ "type": "Feature", "properties": { "id": 634866813, "addr:street": "Spittal Street", "addr:housenumber": "7", "denotation": null, "name": "Footlights Bar & Grill", "amenity": "pub", "naptan:CommonName": null, "opening_hours": "Mo-Su 10:00-01:00", "capacity": null, "description": null }, "geometry": { "type": "Point", "coordinates": [ -3.2036644, 55.946038 ] } },
{ "type": "Feature", "properties": { "id": 639106656, "addr:street": "High Street", "addr:housenumber": "197", "denotation": null, "name": "The Albanach", "amenity": "pub", "naptan:CommonName": null, "opening_hours": null, "capacity": null, "description": null }, "geometry": { "type": "Point", "coordinates": [ -3.1884318, 55.9501558 ] } },
{ "type": "Feature", "properties": { "id": 647185187, "addr:street": "South Fort Street", "addr:housenumber": "16", "denotation": null, "name": "The Village", "amenity": "pub", "naptan:CommonName": null, "opening_hours": null, "capacity": null, "description": null }, "geometry": { "type": "Point", "coordinates": [ -3.1833374, 55.9740948 ] } },
{ "type": "Feature", "properties": { "id": 652714585, "addr:street": "Roseburn Terrace", "addr:housenumber": "57-59", "denotation": null, "name": "Murrayfield Bar & Kitchen", "amenity": "pub", "naptan:CommonName": null, "opening_hours": null, "capacity": null, "description": null }, "geometry": { "type": "Point", "coordinates": [ -3.2355309, 55.9456394 ] } },
{ "type": "Feature", "properties": { "id": 652714587, "addr:street": "Roseburn Terrace", "addr:housenumber": "1", "denotation": null, "name": "Roseburn Bar", "amenity": "pub", "naptan:CommonName": null, "opening_hours": null, "capacity": null, "description": null }, "geometry": { "type": "Point", "coordinates": [ -3.2338696, 55.9453683 ] } },
{ "type": "Feature", "properties": { "id": 658120529, "addr:street": "George IV Bridge", "addr:housenumber": "26", "denotation": null, "name": "Frankenstein", "amenity": "pub", "naptan:CommonName": null, "opening_hours": null, "capacity": null, "description": null }, "geometry": { "type": "Point", "coordinates": [ -3.1917057, 55.94738 ] } },
{ "type": "Feature", "properties": { "id": 658120548, "addr:street": "North Bank Street", "addr:housenumber": "11-13", "denotation": null, "name": "Wash Bar", "amenity": "pub", "naptan:CommonName": null, "opening_hours": "Su-Th 11:30-00:00; Fr-Sa 11:30-01:00", "capacity": null, "description": null }, "geometry": { "type": "Point", "coordinates": [ -3.1939944, 55.9498179 ] } },
{ "type": "Feature", "properties": { "id": 663451599, "addr:street": "London Street", "addr:housenumber": "49-51", "denotation": null, "name": "The Ox", "amenity": "pub", "naptan:CommonName": null, "opening_hours": null, "capacity": null, "description": null }, "geometry": { "type": "Point", "coordinates": [ -3.1909575, 55.9590414 ] } },
{ "type": "Feature", "properties": { "id": 674682926, "addr:street": "Tarvit Street", "addr:housenumber": "11-13", "denotation": null, "name": "Burlington Bertie", "amenity": "pub", "naptan:CommonName": null, "opening_hours": "Mo-Sa 11:00-01:00;Su 12:30-01:00", "capacity": null, "description": null }, "geometry": { "type": "Point", "coordinates": [ -3.2027656, 55.942227 ] } },
{ "type": "Feature", "properties": { "id": 685179762, "addr:street": "Eyre Place", "addr:housenumber": "49-51", "denotation": null, "name": "Smithie's Ale House", "amenity": "pub", "naptan:CommonName": null, "opening_hours": null, "capacity": null, "description": null }, "geometry": { "type": "Point", "coordinates": [ -3.1977558, 55.9620283 ] } },
{ "type": "Feature", "properties": { "id": 705831578, "addr:street": "Morrison Street", "addr:housenumber": "185", "denotation": null, "name": "Monty's", "amenity": "pub", "naptan:CommonName": null, "opening_hours": null, "capacity": null, "description": null }, "geometry": { "type": "Point", "coordinates": [ -3.2134952, 55.9460249 ] } },
{ "type": "Feature", "properties": { "id": 705831581, "addr:street": "West Maitland Street", "addr:housenumber": "11-14A", "denotation": null, "name": "Haymarket", "amenity": "pub", "naptan:CommonName": null, "opening_hours": "Mo-Th 10:00-00:00; Fr-Sa 10:00-01:00; Su 11:00-00:00", "capacity": null, "description": null }, "geometry": { "type": "Point", "coordinates": [ -3.2161818, 55.9463839 ] } },
{ "type": "Feature", "properties": { "id": 727348525, "addr:street": "Dean Street", "addr:housenumber": "50", "denotation": null, "name": "The Raeburn", "amenity": "pub", "naptan:CommonName": null, "opening_hours": null, "capacity": null, "description": null }, "geometry": { "type": "Point", "coordinates": [ -3.212814, 55.957839 ] } },
{ "type": "Feature", "properties": { "id": 732958018, "addr:street": "High Street", "addr:housenumber": "131-133", "denotation": null, "name": "The Mitre", "amenity": "pub", "naptan:CommonName": null, "opening_hours": null, "capacity": null, "description": null }, "geometry": { "type": "Point", "coordinates": [ -3.186896, 55.9503821 ] } },
{ "type": "Feature", "properties": { "id": 734668069, "addr:street": "Potterrow", "addr:housenumber": "32-34", "denotation": null, "name": "St Andrews Brewing Company", "amenity": "pub", "naptan:CommonName": null, "opening_hours": null, "capacity": null, "description": null }, "geometry": { "type": "Point", "coordinates": [ -3.1864969, 55.9453063 ] } },
{ "type": "Feature", "properties": { "id": 736215229, "addr:street": "Lawnmarket", "addr:housenumber": "435", "denotation": null, "name": "Deacon Brodie's Tavern", "amenity": "pub", "naptan:CommonName": null, "opening_hours": null, "capacity": null, "description": null }, "geometry": { "type": "Point", "coordinates": [ -3.1929486, 55.9495349 ] } },
{ "type": "Feature", "properties": { "id": 759026026, "addr:street": "Constitution Street", "addr:housenumber": "44A", "denotation": null, "name": "Nobles", "amenity": "pub", "naptan:CommonName": null, "opening_hours": "Mo-Th 11:30-00:00; Fr 11:30-01:00; Sa 10:00-01:00; Su 10:00-00:00", "capacity": null, "description": null }, "geometry": { "type": "Point", "coordinates": [ -3.1672626, 55.9748932 ] } },
{ "type": "Feature", "properties": { "id": 766185386, "addr:street": "Lothian Road", "addr:housenumber": "31", "denotation": null, "name": "The Caley Picture House", "amenity": "pub", "naptan:CommonName": null, "opening_hours": null, "capacity": null, "description": null }, "geometry": { "type": "Point", "coordinates": [ -3.2060765, 55.9482513 ] } },
{ "type": "Feature", "properties": { "id": 839139665, "addr:street": "Hunter Square", "addr:housenumber": "9", "denotation": null, "name": "The Tron", "amenity": "pub", "naptan:CommonName": null, "opening_hours": null, "capacity": null, "description": null }, "geometry": { "type": "Point", "coordinates": [ -3.1876144, 55.9495835 ] } },
{ "type": "Feature", "properties": { "id": 913817636, "addr:street": "Leith Street", "addr:housenumber": "5-11", "denotation": null, "name": "The Newsroom", "amenity": "pub", "naptan:CommonName": null, "opening_hours": "Mo-Su 11:00-01:00", "capacity": null, "description": null }, "geometry": { "type": "Point", "coordinates": [ -3.1881695, 55.9537866 ] } },
{ "type": "Feature", "properties": { "id": 914545594, "addr:street": "Restalrig Road", "addr:housenumber": "5-7", "denotation": null, "name": "The Links Tavern", "amenity": "pub", "naptan:CommonName": null, "opening_hours": null, "capacity": null, "description": null }, "geometry": { "type": "Point", "coordinates": [ -3.1595595, 55.9695786 ] } },
{ "type": "Feature", "properties": { "id": 1249972539, "addr:street": "Elm Row", "addr:housenumber": "7-8", "denotation": null, "name": "Jeremiah's Taproom", "amenity": "pub", "naptan:CommonName": null, "opening_hours": null, "capacity": null, "description": null }, "geometry": { "type": "Point", "coordinates": [ -3.1836243, 55.9583594 ] } },
{ "type": "Feature", "properties": { "id": 1273159959, "addr:street": "Jock's Lodge", "addr:housenumber": "35", "denotation": null, "name": "Barrel House Bar & Grill", "amenity": "pub", "naptan:CommonName": null, "opening_hours": null, "capacity": null, "description": null }, "geometry": { "type": "Point", "coordinates": [ -3.1497138, 55.9551272 ] } },
{ "type": "Feature", "properties": { "id": 1319348485, "addr:street": "West Preston Street", "addr:housenumber": "24-26", "denotation": null, "name": "Cask & Barrel Southside", "amenity": "pub", "naptan:CommonName": null, "opening_hours": null, "capacity": null, "description": null }, "geometry": { "type": "Point", "coordinates": [ -3.1800426, 55.9389607 ] } },
{ "type": "Feature", "properties": { "id": 1327629857, "addr:street": "Broughton Street", "addr:housenumber": "25", "denotation": null, "name": "The Empress", "amenity": "pub", "naptan:CommonName": null, "opening_hours": null, "capacity": null, "description": null }, "geometry": { "type": "Point", "coordinates": [ -3.1879231, 55.9570705 ] } },
{ "type": "Feature", "properties": { "id": 1329619364, "addr:street": "Rose Street", "addr:housenumber": "37", "denotation": null, "name": "Robertsons 37 Bar", "amenity": "pub", "naptan:CommonName": null, "opening_hours": null, "capacity": null, "description": null }, "geometry": { "type": "Point", "coordinates": [ -3.1977278, 55.9527425 ] } },
{ "type": "Feature", "properties": { "id": 1361026044, "addr:street": "Niddry Street", "addr:housenumber": "29-35", "denotation": null, "name": "The Banshee Labyrinth", "amenity": "pub", "naptan:CommonName": null, "opening_hours": null, "capacity": null, "description": null }, "geometry": { "type": "Point", "coordinates": [ -3.1869167, 55.9493788 ] } },
{ "type": "Feature", "properties": { "id": 1367308785, "addr:street": "Grassmarket", "addr:housenumber": "11-13", "denotation": null, "name": "Fiddler's Arms", "amenity": "pub", "naptan:CommonName": null, "opening_hours": null, "capacity": null, "description": null }, "geometry": { "type": "Point", "coordinates": [ -3.1978718, 55.9468964 ] } },
{ "type": "Feature", "properties": { "id": 1367318907, "addr:street": "West Bow", "addr:housenumber": "80", "denotation": null, "name": "Bow Bar", "amenity": "pub", "naptan:CommonName": null, "opening_hours": null, "capacity": null, "description": null }, "geometry": { "type": "Point", "coordinates": [ -3.1941366, 55.9484235 ] } },
{ "type": "Feature", "properties": { "id": 1367337816, "addr:street": "Rose Street", "addr:housenumber": "3-5", "denotation": null, "name": "Abbotsford", "amenity": "pub", "naptan:CommonName": null, "opening_hours": null, "capacity": null, "description": null }, "geometry": { "type": "Point", "coordinates": [ -3.1946516, 55.9532705 ] } },
{ "type": "Feature", "properties": { "id": 1369533379, "addr:street": "Elm Row", "addr:housenumber": "23", "denotation": null, "name": "Joseph Pearce", "amenity": "pub", "naptan:CommonName": null, "opening_hours": "Mo-Th 11:00-00:00; Fr 11:00-01:00; Su 11:00-00:00", "capacity": null, "description": null }, "geometry": { "type": "Point", "coordinates": [ -3.1830162, 55.9589898 ] } },
{ "type": "Feature", "properties": { "id": 1369539068, "addr:street": "Cockburn Street", "addr:housenumber": "73", "denotation": null, "name": "Scotsman's Lounge", "amenity": "pub", "naptan:CommonName": null, "opening_hours": null, "capacity": null, "description": null }, "geometry": { "type": "Point", "coordinates": [ -3.1881082, 55.9503609 ] } },
{ "type": "Feature", "properties": { "id": 1427181454, "addr:street": "William Street", "addr:housenumber": "26", "denotation": null, "name": "Teuchters", "amenity": "pub", "naptan:CommonName": null, "opening_hours": "Mo-Su 10:30-01:00", "capacity": null, "description": null }, "geometry": { "type": "Point", "coordinates": [ -3.2123286, 55.9493237 ] } },
{ "type": "Feature", "properties": { "id": 1437376909, "addr:street": "York Place", "addr:housenumber": "73", "denotation": null, "name": "Conan Doyle", "amenity": "pub", "naptan:CommonName": null, "opening_hours": null, "capacity": null, "description": null }, "geometry": { "type": "Point", "coordinates": [ -3.1878523, 55.9564749 ] } },
{ "type": "Feature", "properties": { "id": 1437376910, "addr:street": "Greenside Place", "addr:housenumber": "26-27", "denotation": null, "name": "Theatre Royal", "amenity": "pub", "naptan:CommonName": null, "opening_hours": "Mo-Th 11:30-00:00; Fr-Sa 11:30-01:00; Su 12:30-00:00", "capacity": null, "description": null }, "geometry": { "type": "Point", "coordinates": [ -3.1850761, 55.9571783 ] } },
{ "type": "Feature", "properties": { "id": 1557683657, "addr:street": "Candlemaker Row", "addr:housenumber": "33", "denotation": null, "name": "Oz Bar", "amenity": "pub", "naptan:CommonName": null, "opening_hours": null, "capacity": null, "description": null }, "geometry": { "type": "Point", "coordinates": [ -3.1919993, 55.947502 ] } },
{ "type": "Feature", "properties": { "id": 1557683661, "addr:street": "Johnston Terrace", "addr:housenumber": "6", "denotation": null, "name": "The Castle Arms", "amenity": "pub", "naptan:CommonName": null, "opening_hours": null, "capacity": null, "description": null }, "geometry": { "type": "Point", "coordinates": [ -3.1947345, 55.9485285 ] } },
{ "type": "Feature", "properties": { "id": 1558008745, "addr:street": "Leith Street", "addr:housenumber": "43", "denotation": null, "name": "The Black Bull", "amenity": "pub", "naptan:CommonName": null, "opening_hours": null, "capacity": null, "description": null }, "geometry": { "type": "Point", "coordinates": [ -3.1873486, 55.954251 ] } },
{ "type": "Feature", "properties": { "id": 1558429123, "addr:street": "Market Street", "addr:housenumber": "17", "denotation": null, "name": "Hebrides Bar", "amenity": "pub", "naptan:CommonName": null, "opening_hours": null, "capacity": null, "description": null }, "geometry": { "type": "Point", "coordinates": [ -3.1907041, 55.9508675 ] } },
{ "type": "Feature", "properties": { "id": 1558430340, "addr:street": "Market Street", "addr:housenumber": "15-16", "denotation": null, "name": "The Doric", "amenity": "pub", "naptan:CommonName": null, "opening_hours": null, "capacity": null, "description": null }, "geometry": { "type": "Point", "coordinates": [ -3.1905922, 55.9508879 ] } },
{ "type": "Feature", "properties": { "id": 1558431275, "addr:street": "St Andrew Square", "addr:housenumber": "1", "denotation": null, "name": "Tiles Bar", "amenity": "pub", "naptan:CommonName": null, "opening_hours": "Mo-Th 11:00-23:00; Fr-Sa 09:30-00:00; Su 10:00-23:00", "capacity": null, "description": null }, "geometry": { "type": "Point", "coordinates": [ -3.1920758, 55.9536204 ] } },
{ "type": "Feature", "properties": { "id": 1558442814, "addr:street": "Hope Street", "addr:housenumber": "13", "denotation": null, "name": "Whighams Wine Cellars", "amenity": "pub", "naptan:CommonName": null, "opening_hours": null, "capacity": null, "description": null }, "geometry": { "type": "Point", "coordinates": [ -3.2079252, 55.9508253 ] } },
{ "type": "Feature", "properties": { "id": 1558442817, "addr:street": "Rose Street", "addr:housenumber": "112-114", "denotation": null, "name": "Element", "amenity": "pub", "naptan:CommonName": null, "opening_hours": null, "capacity": null, "description": null }, "geometry": { "type": "Point", "coordinates": [ -3.2007308, 55.9520584 ] } },
{ "type": "Feature", "properties": { "id": 1558442818, "addr:street": "Queensferry Street", "addr:housenumber": "1", "denotation": null, "name": "Mathers Bar", "amenity": "pub", "naptan:CommonName": null, "opening_hours": "Mo-Th 11:00-00:00; Fr-Sa 11:00-01:00; Su 12:30-23:00", "capacity": null, "description": null }, "geometry": { "type": "Point", "coordinates": [ -3.2086924, 55.9502264 ] } },
{ "type": "Feature", "properties": { "id": 1608938020, "addr:street": "Jamaica Street West", "addr:housenumber": "39", "denotation": null, "name": "Kay's Bar", "amenity": "pub", "naptan:CommonName": null, "opening_hours": null, "capacity": null, "description": null }, "geometry": { "type": "Point", "coordinates": [ -3.2050284, 55.9557144 ] } },
{ "type": "Feature", "properties": { "id": 1608938025, "addr:street": "Northumberland Place", "addr:housenumber": "1", "denotation": null, "name": "Star Bar", "amenity": "pub", "naptan:CommonName": null, "opening_hours": null, "capacity": null, "description": null }, "geometry": { "type": "Point", "coordinates": [ -3.1955177, 55.9573512 ] } },
{ "type": "Feature", "properties": { "id": 1608938029, "addr:street": "Broughton Street", "addr:housenumber": "81-85", "denotation": null, "name": "The Barony Bar", "amenity": "pub", "naptan:CommonName": null, "opening_hours": "Mo-Th 11:00-00:00; Fr-Sa 11:00-01:00; Su 12:30-00:00", "capacity": null, "description": null }, "geometry": { "type": "Point", "coordinates": [ -3.1894464, 55.9582765 ] } },
{ "type": "Feature", "properties": { "id": 1608938041, "addr:street": "Northumberland Street", "addr:housenumber": "32", "denotation": null, "name": "The Wally Dug", "amenity": "pub", "naptan:CommonName": null, "opening_hours": null, "capacity": null, "description": null }, "geometry": { "type": "Point", "coordinates": [ -3.1985636, 55.9568105 ] } },
{ "type": "Feature", "properties": { "id": 1754796173, "addr:street": "Castle Street", "addr:housenumber": "22-26", "denotation": null, "name": "The Amber Rose", "amenity": "pub", "naptan:CommonName": null, "opening_hours": "Mo-Tu 10:00-00:00; We-Sa 10:00-01:00; Su 11:00-00:00", "capacity": null, "description": null }, "geometry": { "type": "Point", "coordinates": [ -3.2034842, 55.951768 ] } },
{ "type": "Feature", "properties": { "id": 1770134134, "addr:street": "Bristo Square", "addr:housenumber": "13", "denotation": null, "name": "The Library Bar", "amenity": "pub", "naptan:CommonName": null, "opening_hours": null, "capacity": null, "description": null }, "geometry": { "type": "Point", "coordinates": [ -3.1888816, 55.9450084 ] } },
{ "type": "Feature", "properties": { "id": 1782941207, "addr:street": "Dublin Street", "addr:housenumber": "26B", "denotation": null, "name": "Daylight Robbery", "amenity": "pub", "naptan:CommonName": null, "opening_hours": null, "capacity": null, "description": null }, "geometry": { "type": "Point", "coordinates": [ -3.19386, 55.9569652 ] } },
{ "type": "Feature", "properties": { "id": 1809318915, "addr:street": null, "addr:housenumber": null, "denotation": null, "name": "Bar Brig", "amenity": "pub", "naptan:CommonName": null, "opening_hours": null, "capacity": null, "description": null }, "geometry": { "type": "Point", "coordinates": [ -3.1733366, 55.9690697 ] } },
{ "type": "Feature", "properties": { "id": 1880546995, "addr:street": "Marchmont Crescent", "addr:housenumber": "22", "denotation": null, "name": "The Earl of Marchmont", "amenity": "pub", "naptan:CommonName": null, "opening_hours": "Mo-Sa 12:00-01:00; Su 12:00-00:00", "capacity": null, "description": null }, "geometry": { "type": "Point", "coordinates": [ -3.1928884, 55.9379885 ] } },
{ "type": "Feature", "properties": { "id": 1881721774, "addr:street": "Easter Road", "addr:housenumber": "154", "denotation": null, "name": "The Mash Tun", "amenity": "pub", "naptan:CommonName": null, "opening_hours": null, "capacity": null, "description": null }, "geometry": { "type": "Point", "coordinates": [ -3.1713136, 55.9600272 ] } },
{ "type": "Feature", "properties": { "id": 1882342947, "addr:street": "Newington Road", "addr:housenumber": "72-74", "denotation": null, "name": "The Mockingbird", "amenity": "pub", "naptan:CommonName": null, "opening_hours": null, "capacity": null, "description": null }, "geometry": { "type": "Point", "coordinates": [ -3.1786343, 55.9377438 ] } },
{ "type": "Feature", "properties": { "id": 1886873919, "addr:street": "Holyrood Road", "addr:housenumber": "75", "denotation": null, "name": "Hemma", "amenity": "pub", "naptan:CommonName": null, "opening_hours": "Mo 11:00-20:00; Tu-Th 11:00-24:00; Fr 11:00-01:00; Sa 10:00-01:00; Su 10:00-20:00", "capacity": null, "description": null }, "geometry": { "type": "Point", "coordinates": [ -3.1772923, 55.9507068 ] } },
{ "type": "Feature", "properties": { "id": 1946701835, "addr:street": "Ferry Road", "addr:housenumber": null, "denotation": null, "name": "Oceana", "amenity": "pub", "naptan:CommonName": null, "opening_hours": null, "capacity": null, "description": null }, "geometry": { "type": "Point", "coordinates": [ -3.1856123, 55.9742607 ] } },
{ "type": "Feature", "properties": { "id": 1951178520, "addr:street": "Morrison Street", "addr:housenumber": "182-184", "denotation": null, "name": "Thomson's Bar", "amenity": "pub", "naptan:CommonName": null, "opening_hours": null, "capacity": null, "description": null }, "geometry": { "type": "Point", "coordinates": [ -3.2122719, 55.9462531 ] } },
{ "type": "Feature", "properties": { "id": 1951385562, "addr:street": "William Street", "addr:housenumber": "29-31", "denotation": null, "name": "The Voyage of Buck", "amenity": "pub", "naptan:CommonName": null, "opening_hours": null, "capacity": null, "description": null }, "geometry": { "type": "Point", "coordinates": [ -3.2125006, 55.9494668 ] } },
{ "type": "Feature", "properties": { "id": 1951680695, "addr:street": "Forrest Road", "addr:housenumber": "25", "denotation": null, "name": "Sandy Bell's", "amenity": "pub", "naptan:CommonName": null, "opening_hours": "Mo-Sa 12:00-01:00; Su 12:30-00:00", "capacity": null, "description": null }, "geometry": { "type": "Point", "coordinates": [ -3.1912896, 55.9460808 ] } },
{ "type": "Feature", "properties": { "id": 1977943406, "addr:street": "Shandwick Place", "addr:housenumber": "26-28", "denotation": null, "name": "The Grosvenor", "amenity": "pub", "naptan:CommonName": null, "opening_hours": "Mo-Th 11:00-23:00; Fr-Sa 11:00-01:00; Su 11:00-23:00", "capacity": null, "description": null }, "geometry": { "type": "Point", "coordinates": [ -3.20933, 55.949833 ] } },
{ "type": "Feature", "properties": { "id": 1996125592, "addr:street": "Drummond Street", "addr:housenumber": "14", "denotation": null, "name": "The Brass Monkey", "amenity": "pub", "naptan:CommonName": null, "opening_hours": "Mo-Su 11:00-01:00", "capacity": null, "description": null }, "geometry": { "type": "Point", "coordinates": [ -3.1852854, 55.9472546 ] } },
{ "type": "Feature", "properties": { "id": 2073217320, "addr:street": null, "addr:housenumber": null, "denotation": null, "name": "Baobab", "amenity": "pub", "naptan:CommonName": null, "opening_hours": null, "capacity": null, "description": null }, "geometry": { "type": "Point", "coordinates": [ -3.2115575, 55.9513702 ] } },
{ "type": "Feature", "properties": { "id": 2075163263, "addr:street": "William Street", "addr:housenumber": "19-21-23-25", "denotation": null, "name": "The Melville", "amenity": "pub", "naptan:CommonName": null, "opening_hours": "Mo-Su 11:00-01:00", "capacity": null, "description": null }, "geometry": { "type": "Point", "coordinates": [ -3.2123275, 55.9495285 ] } },
{ "type": "Feature", "properties": { "id": 2089188356, "addr:street": "Home Street", "addr:housenumber": "69", "denotation": null, "name": "Cuckoo's Nest", "amenity": "pub", "naptan:CommonName": null, "opening_hours": "Mo 17:00-01:00;Tu-Fr 12:30-01:00;Sa 12:00-01:00;Su 13:00-01:00", "capacity": null, "description": null }, "geometry": { "type": "Point", "coordinates": [ -3.2031887, 55.9421663 ] } },
{ "type": "Feature", "properties": { "id": 2089192516, "addr:street": "Leven Street", "addr:housenumber": "37-39", "denotation": null, "name": "The Blackbird", "amenity": "pub", "naptan:CommonName": null, "opening_hours": null, "capacity": null, "description": null }, "geometry": { "type": "Point", "coordinates": [ -3.2037107, 55.9410838 ] } },
{ "type": "Feature", "properties": { "id": 2089200146, "addr:street": "Forrest Road", "addr:housenumber": "14-18", "denotation": null, "name": "McSorley's", "amenity": "pub", "naptan:CommonName": null, "opening_hours": "Mo-Su 12:00-01:00", "capacity": null, "description": null }, "geometry": { "type": "Point", "coordinates": [ -3.1908508, 55.945862 ] } },
{ "type": "Feature", "properties": { "id": 2089338544, "addr:street": "Barclay Place", "addr:housenumber": "1-3", "denotation": null, "name": "Henricks Bar & Bistro", "amenity": "pub", "naptan:CommonName": null, "opening_hours": null, "capacity": null, "description": null }, "geometry": { "type": "Point", "coordinates": [ -3.2036918, 55.9403588 ] } },
{ "type": "Feature", "properties": { "id": 2100295733, "addr:street": "Hanover Street", "addr:housenumber": "112", "denotation": null, "name": "Hanover Tap", "amenity": "pub", "naptan:CommonName": null, "opening_hours": "Mo-Su 12:00-01:00", "capacity": null, "description": null }, "geometry": { "type": "Point", "coordinates": [ -3.1981407, 55.9545337 ] } },
{ "type": "Feature", "properties": { "id": 2109786401, "addr:street": "South Charlotte Street", "addr:housenumber": "4", "denotation": null, "name": "Shandwick's", "amenity": "pub", "naptan:CommonName": null, "opening_hours": "Mo-Th 11:00-23:00; Fr 11:00-01:00, Sa 11:00-01:00, Su 12:00-23:00", "capacity": null, "description": null }, "geometry": { "type": "Point", "coordinates": [ -3.2063304, 55.950708 ] } },
{ "type": "Feature", "properties": { "id": 2110964848, "addr:street": "Waterloo Place", "addr:housenumber": "3", "denotation": null, "name": "Waterloo Bar", "amenity": "pub", "naptan:CommonName": null, "opening_hours": null, "capacity": null, "description": null }, "geometry": { "type": "Point", "coordinates": [ -3.1880643, 55.9536574 ] } },
{ "type": "Feature", "properties": { "id": 2112358193, "addr:street": "High Street", "addr:housenumber": "154", "denotation": null, "name": "Royal McGregor", "amenity": "pub", "naptan:CommonName": null, "opening_hours": null, "capacity": null, "description": null }, "geometry": { "type": "Point", "coordinates": [ -3.1888791, 55.9498111 ] } },
{ "type": "Feature", "properties": { "id": 2112426253, "addr:street": "High Street", "addr:housenumber": "119", "denotation": null, "name": "Whiski", "amenity": "pub", "naptan:CommonName": null, "opening_hours": null, "capacity": null, "description": null }, "geometry": { "type": "Point", "coordinates": [ -3.1865438, 55.9504288 ] } },
{ "type": "Feature", "properties": { "id": 2112426299, "addr:street": "Cowgate", "addr:housenumber": "143", "denotation": null, "name": "Brew Dog", "amenity": "pub", "naptan:CommonName": null, "opening_hours": "Mo-Sa 12:00-01:00; Su 12:30-01:00", "capacity": null, "description": null }, "geometry": { "type": "Point", "coordinates": [ -3.189683, 55.9483708 ] } },
{ "type": "Feature", "properties": { "id": 2112474893, "addr:street": "Cowgatehead", "addr:housenumber": "3", "denotation": null, "name": "Bar Salsa", "amenity": "pub", "naptan:CommonName": null, "opening_hours": null, "capacity": null, "description": null }, "geometry": { "type": "Point", "coordinates": [ -3.1940182, 55.9477219 ] } },
{ "type": "Feature", "properties": { "id": 2112504091, "addr:street": "Lothian Road", "addr:housenumber": "65", "denotation": null, "name": "Shakespeare", "amenity": "pub", "naptan:CommonName": null, "opening_hours": "Mo-Th 11:00-23:00; Fr-Sa 11:00-01:00; Su 11:00-23:00", "capacity": null, "description": null }, "geometry": { "type": "Point", "coordinates": [ -3.2058334, 55.9475568 ] } },
{ "type": "Feature", "properties": { "id": 2112504111, "addr:street": "Morrison Street", "addr:housenumber": "18", "denotation": null, "name": "Lebowskis", "amenity": "pub", "naptan:CommonName": null, "opening_hours": null, "capacity": null, "description": null }, "geometry": { "type": "Point", "coordinates": [ -3.2063421, 55.9459343 ] } },
{ "type": "Feature", "properties": { "id": 2112507655, "addr:street": "Morrison Street", "addr:housenumber": "16A", "denotation": null, "name": "Henry's Cellar Bar", "amenity": "pub", "naptan:CommonName": null, "opening_hours": null, "capacity": null, "description": null }, "geometry": { "type": "Point", "coordinates": [ -3.2062256, 55.9459354 ] } },
{ "type": "Feature", "properties": { "id": 2114321902, "addr:street": "Frederick Street", "addr:housenumber": "49", "denotation": null, "name": "Queen's Arms", "amenity": "pub", "naptan:CommonName": null, "opening_hours": null, "capacity": null, "description": null }, "geometry": { "type": "Point", "coordinates": [ -3.200505, 55.9536675 ] } },
{ "type": "Feature", "properties": { "id": 2119041375, "addr:street": "Merchant Street", "addr:housenumber": "3A", "denotation": null, "name": "Under the Stairs", "amenity": "pub", "naptan:CommonName": null, "opening_hours": null, "capacity": null, "description": null }, "geometry": { "type": "Point", "coordinates": [ -3.1921736, 55.9476573 ] } },
{ "type": "Feature", "id": -2139700891, "properties": { "id": 2155266405, "addr:street": "South College Street", "addr:housenumber": "4", "denotation": null, "name": "The Captains Bar", "amenity": "pub", "naptan:CommonName": null, "opening_hours": "Mo-Fr 14:00-01:00; Sa 13:00-01:00; Su 14:00-01:00", "capacity": null, "description": null }, "geometry": { "type": "Point", "coordinates": [ -3.1865074, 55.9470088 ] } },
{ "type": "Feature", "id": -2138014237, "properties": { "id": 2156953059, "addr:street": "West Port", "addr:housenumber": "52", "denotation": null, "name": "Dragonfly", "amenity": "pub", "naptan:CommonName": null, "opening_hours": null, "capacity": null, "description": null }, "geometry": { "type": "Point", "coordinates": [ -3.1994809, 55.9463737 ] } },
{ "type": "Feature", "id": -2106519971, "properties": { "id": 2188447325, "addr:street": "Morrison Street", "addr:housenumber": "256-258-260", "denotation": null, "name": "The Jolly Botanist", "amenity": "pub", "naptan:CommonName": null, "opening_hours": null, "capacity": null, "description": null }, "geometry": { "type": "Point", "coordinates": [ -3.2152697, 55.946311 ] } },
{ "type": "Feature", "id": -2106519966, "properties": { "id": 2188447330, "addr:street": null, "addr:housenumber": null, "denotation": null, "name": "Stratfords", "amenity": "pub", "naptan:CommonName": null, "opening_hours": null, "capacity": null, "description": null }, "geometry": { "type": "Point", "coordinates": [ -3.2349492, 55.9371218 ] } },
{ "type": "Feature", "id": -2095681658, "properties": { "id": 2199285638, "addr:street": null, "addr:housenumber": null, "denotation": null, "name": "Jessie Mays", "amenity": "pub", "naptan:CommonName": null, "opening_hours": null, "capacity": null, "description": null }, "geometry": { "type": "Point", "coordinates": [ -3.2377773, 55.9368745 ] } },
{ "type": "Feature", "id": -2076541442, "properties": { "id": 2218425854, "addr:street": null, "addr:housenumber": null, "denotation": null, "name": "The Royal Dick", "amenity": "pub", "naptan:CommonName": null, "opening_hours": null, "capacity": null, "description": null }, "geometry": { "type": "Point", "coordinates": [ -3.1815162, 55.9399617 ] } },
{ "type": "Feature", "id": -2017575767, "properties": { "id": 2277391529, "addr:street": "Argyle Place", "addr:housenumber": "15-17", "denotation": null, "name": "Argyle Bar", "amenity": "pub", "naptan:CommonName": null, "opening_hours": null, "capacity": null, "description": null }, "geometry": { "type": "Point", "coordinates": [ -3.191593, 55.9382403 ] } },
{ "type": "Feature", "id": -2008219282, "properties": { "id": 2286748014, "addr:street": "Duke Street", "addr:housenumber": "13", "denotation": null, "name": "The Marksman", "amenity": "pub", "naptan:CommonName": null, "opening_hours": null, "capacity": null, "description": null }, "geometry": { "type": "Point", "coordinates": [ -3.1709009, 55.9704606 ] } },
{ "type": "Feature", "id": -2001396991, "properties": { "id": 2293570305, "addr:street": null, "addr:housenumber": null, "denotation": null, "name": "Mayfield Bar & Grill", "amenity": "pub", "naptan:CommonName": null, "opening_hours": "Mo-Fr 11:30-20:00", "capacity": null, "description": null }, "geometry": { "type": "Point", "coordinates": [ -3.1746243, 55.9234979 ] } },
{ "type": "Feature", "id": -1971160055, "properties": { "id": 2323807241, "addr:street": "Blair Street", "addr:housenumber": "7", "denotation": null, "name": "The Advocate", "amenity": "pub", "naptan:CommonName": null, "opening_hours": null, "capacity": null, "description": null }, "geometry": { "type": "Point", "coordinates": [ -3.1879514, 55.9495157 ] } },
{ "type": "Feature", "id": -1970011726, "properties": { "id": 2324955570, "addr:street": "South Clerk Street", "addr:housenumber": "22-26", "denotation": null, "name": "The Southern", "amenity": "pub", "naptan:CommonName": null, "opening_hours": null, "capacity": null, "description": null }, "geometry": { "type": "Point", "coordinates": [ -3.180898, 55.9404684 ] } },
{ "type": "Feature", "id": -1959332739, "properties": { "id": 2335634557, "addr:street": "Brougham Street", "addr:housenumber": "2", "denotation": null, "name": "The Ventoux", "amenity": "pub", "naptan:CommonName": null, "opening_hours": null, "capacity": null, "description": null }, "geometry": { "type": "Point", "coordinates": [ -3.202915, 55.9436826 ] } },
{ "type": "Feature", "id": -1959332675, "properties": { "id": 2335634621, "addr:street": "Clerk Street", "addr:housenumber": "77", "denotation": null, "name": "The Grapes", "amenity": "pub", "naptan:CommonName": null, "opening_hours": null, "capacity": null, "description": null }, "geometry": { "type": "Point", "coordinates": [ -3.181767, 55.9414879 ] } },
{ "type": "Feature", "id": -1956664968, "properties": { "id": 2338302328, "addr:street": "Brougham Street", "addr:housenumber": "26", "denotation": null, "name": "Cloisters Bar", "amenity": "pub", "naptan:CommonName": null, "opening_hours": "Mo-Th 12:00-00:00;Fr-Sa 12:00-01:00;Su 12:30-00:00", "capacity": null, "description": null }, "geometry": { "type": "Point", "coordinates": [ -3.2018829, 55.9432724 ] } },
{ "type": "Feature", "id": -1956639103, "properties": { "id": 2338328193, "addr:street": "Victoria Street", "addr:housenumber": "9B", "denotation": null, "name": "Finnegan's Wake", "amenity": "pub", "naptan:CommonName": null, "opening_hours": null, "capacity": null, "description": null }, "geometry": { "type": "Point", "coordinates": [ -3.1935392, 55.948557 ] } },
{ "type": "Feature", "id": -1956249424, "properties": { "id": 2338717872, "addr:street": "Grassmarket", "addr:housenumber": "12", "denotation": null, "name": "Black Bull", "amenity": "pub", "naptan:CommonName": null, "opening_hours": null, "capacity": null, "description": null }, "geometry": { "type": "Point", "coordinates": [ -3.1974869, 55.9473403 ] } },
{ "type": "Feature", "id": -1956247600, "properties": { "id": 2338719696, "addr:street": "Grassmarket", "addr:housenumber": "18-20", "denotation": null, "name": "The Beehive Inn", "amenity": "pub", "naptan:CommonName": null, "opening_hours": null, "capacity": null, "description": null }, "geometry": { "type": "Point", "coordinates": [ -3.197165, 55.947417 ] } },
{ "type": "Feature", "id": -1956246511, "properties": { "id": 2338720785, "addr:street": "Grassmarket", "addr:housenumber": "34", "denotation": null, "name": "The White Hart Inn", "amenity": "pub", "naptan:CommonName": null, "opening_hours": "Mo-Th 11:00-00:00; Fr-Sa 11:00-01:00; Su 12:30-00:00", "capacity": null, "description": null }, "geometry": { "type": "Point", "coordinates": [ -3.1967755, 55.9475053 ] } },
{ "type": "Feature", "id": -1956244983, "properties": { "id": 2338722313, "addr:street": "Grassmarket", "addr:housenumber": "74-78", "denotation": null, "name": "The Last Drop", "amenity": "pub", "naptan:CommonName": null, "opening_hours": "Mo-Fr 12:00-23:00; Sa-Su 12:00-00:00", "capacity": null, "description": null }, "geometry": { "type": "Point", "coordinates": [ -3.1953466, 55.9478368 ] } },
{ "type": "Feature", "id": -1956244305, "properties": { "id": 2338722991, "addr:street": "Grassmarket", "addr:housenumber": "92", "denotation": null, "name": "Maggie Dickson's", "amenity": "pub", "naptan:CommonName": null, "opening_hours": null, "capacity": null, "description": null }, "geometry": { "type": "Point", "coordinates": [ -3.1950739, 55.9479185 ] } },
{ "type": "Feature", "id": -1956243140, "properties": { "id": 2338724156, "addr:street": "Grassmarket", "addr:housenumber": "94-96", "denotation": null, "name": "Biddy Mulligans", "amenity": "pub", "naptan:CommonName": null, "opening_hours": "Mo-Su 08:00-01:00", "capacity": null, "description": null }, "geometry": { "type": "Point", "coordinates": [ -3.1948846, 55.9479678 ] } },
{ "type": "Feature", "id": -1956240517, "properties": { "id": 2338726779, "addr:street": "Lawnmarket", "addr:housenumber": "521-523", "denotation": null, "name": "Ensign Ewart", "amenity": "pub", "naptan:CommonName": null, "opening_hours": null, "capacity": null, "description": null }, "geometry": { "type": "Point", "coordinates": [ -3.1944624, 55.9492026 ] } },
{ "type": "Feature", "id": -1956239400, "properties": { "id": 2338727896, "addr:street": "James's Court", "addr:housenumber": "7", "denotation": null, "name": "The Jolly Judge", "amenity": "pub", "naptan:CommonName": null, "opening_hours": null, "capacity": null, "description": null }, "geometry": { "type": "Point", "coordinates": [ -3.1939483, 55.9495199 ] } },
{ "type": "Feature", "id": -1956232999, "properties": { "id": 2338734297, "addr:street": "Candlemaker Row", "addr:housenumber": "34", "denotation": null, "name": "Greyfriars Bobby's Bar", "amenity": "pub", "naptan:CommonName": null, "opening_hours": "Mo-Th 11:00-23:00; Fr-Sa 11:00-00:00; Su 12:30-23:00", "capacity": null, "description": null }, "geometry": { "type": "Point", "coordinates": [ -3.1915084, 55.946823 ] } },
{ "type": "Feature", "id": -1956217413, "properties": { "id": 2338749883, "addr:street": "Cowgate", "addr:housenumber": "212", "denotation": null, "name": "Bannerman's Bar", "amenity": "pub", "naptan:CommonName": null, "opening_hours": null, "capacity": null, "description": null }, "geometry": { "type": "Point", "coordinates": [ -3.1866449, 55.9488466 ] } },
{ "type": "Feature", "id": -1956018256, "properties": { "id": 2338949040, "addr:street": "Dalry Road", "addr:housenumber": "88", "denotation": null, "name": "Dickens", "amenity": "pub", "naptan:CommonName": null, "opening_hours": null, "capacity": null, "description": null }, "geometry": { "type": "Point", "coordinates": [ -3.219036, 55.9438771 ] } },
{ "type": "Feature", "id": -1956014252, "properties": { "id": 2338953044, "addr:street": "Dalry Road", "addr:housenumber": "178-182", "denotation": null, "name": "Bensons Bar", "amenity": "pub", "naptan:CommonName": null, "opening_hours": null, "capacity": null, "description": null }, "geometry": { "type": "Point", "coordinates": [ -3.2234609, 55.9413923 ] } },
{ "type": "Feature", "id": -1953696489, "properties": { "id": 2341270807, "addr:street": "Morrison Street", "addr:housenumber": "242", "denotation": null, "name": "Malones", "amenity": "pub", "naptan:CommonName": null, "opening_hours": null, "capacity": null, "description": null }, "geometry": { "type": "Point", "coordinates": [ -3.2144247, 55.9462614 ] } },
{ "type": "Feature", "id": -1953689765, "properties": { "id": 2341277531, "addr:street": "Home Street", "addr:housenumber": "45", "denotation": null, "name": "Kings Arms", "amenity": "pub", "naptan:CommonName": null, "opening_hours": null, "capacity": null, "description": null }, "geometry": { "type": "Point", "coordinates": [ -3.2033384, 55.942653 ] } },
{ "type": "Feature", "id": -1950047595, "properties": { "id": 2344919701, "addr:street": "Dundas Street", "addr:housenumber": "142", "denotation": null, "name": "Clark's Bar", "amenity": "pub", "naptan:CommonName": null, "opening_hours": null, "capacity": null, "description": null }, "geometry": { "type": "Point", "coordinates": [ -3.201079, 55.9601568 ] } },
{ "type": "Feature", "id": -1899276297, "properties": { "id": 2395690999, "addr:street": "Causewayside", "addr:housenumber": "114", "denotation": null, "name": "Scotch Hop", "amenity": "pub", "naptan:CommonName": null, "opening_hours": null, "capacity": null, "description": null }, "geometry": { "type": "Point", "coordinates": [ -3.1808444, 55.9372983 ] } },
{ "type": "Feature", "id": -1893941799, "properties": { "id": 2401025497, "addr:street": "Duke Street", "addr:housenumber": "31", "denotation": null, "name": "Duke's Head", "amenity": "pub", "naptan:CommonName": null, "opening_hours": null, "capacity": null, "description": null }, "geometry": { "type": "Point", "coordinates": [ -3.1699531, 55.9701325 ] } },
{ "type": "Feature", "id": -1869259069, "properties": { "id": 2425708227, "addr:street": "Elm Row", "addr:housenumber": "71", "denotation": null, "name": "The Joker & The Thief", "amenity": "pub", "naptan:CommonName": null, "opening_hours": null, "capacity": null, "description": null }, "geometry": { "type": "Point", "coordinates": [ -3.1812802, 55.9606075 ] } },
{ "type": "Feature", "id": -1869259067, "properties": { "id": 2425708229, "addr:street": "Leith Walk", "addr:housenumber": "265", "denotation": null, "name": "Victoria", "amenity": "pub", "naptan:CommonName": null, "opening_hours": null, "capacity": null, "description": null }, "geometry": { "type": "Point", "coordinates": [ -3.1755792, 55.9657458 ] } },
{ "type": "Feature", "id": -1869259066, "properties": { "id": 2425708230, "addr:street": "Leith Walk", "addr:housenumber": "138-140", "denotation": null, "name": "Leith Depot", "amenity": "pub", "naptan:CommonName": null, "opening_hours": null, "capacity": null, "description": null }, "geometry": { "type": "Point", "coordinates": [ -3.1741393, 55.9682176 ] } },
{ "type": "Feature", "id": -1869259058, "properties": { "id": 2425708238, "addr:street": "Leith Walk", "addr:housenumber": "367", "denotation": null, "name": "Robbie's", "amenity": "pub", "naptan:CommonName": null, "opening_hours": null, "capacity": null, "description": null }, "geometry": { "type": "Point", "coordinates": [ -3.1774461, 55.963729 ] } },
{ "type": "Feature", "id": -1869259057, "properties": { "id": 2425708239, "addr:street": null, "addr:housenumber": null, "denotation": null, "name": "Woodland Creatures", "amenity": "pub", "naptan:CommonName": null, "opening_hours": null, "capacity": null, "description": null }, "geometry": { "type": "Point", "coordinates": [ -3.1759399, 55.9661052 ] } },
{ "type": "Feature", "id": -1796785959, "properties": { "id": 2498181337, "addr:street": "Easter Road", "addr:housenumber": "69", "denotation": null, "name": "Middletons", "amenity": "pub", "naptan:CommonName": null, "opening_hours": null, "capacity": null, "description": null }, "geometry": { "type": "Point", "coordinates": [ -3.1717416, 55.9597639 ] } },
{ "type": "Feature", "id": -1796785933, "properties": { "id": 2498181363, "addr:street": "Albert Street", "addr:housenumber": "180", "denotation": null, "name": "The Office", "amenity": "pub", "naptan:CommonName": null, "opening_hours": null, "capacity": null, "description": null }, "geometry": { "type": "Point", "coordinates": [ -3.1711731, 55.9625525 ] } },
{ "type": "Feature", "id": -1796785932, "properties": { "id": 2498181364, "addr:street": "Easter Road", "addr:housenumber": "203", "denotation": null, "name": "Iona Bar", "amenity": "pub", "naptan:CommonName": null, "opening_hours": null, "capacity": null, "description": null }, "geometry": { "type": "Point", "coordinates": [ -3.1710139, 55.9632264 ] } },
{ "type": "Feature", "id": -1796785930, "properties": { "id": 2498181366, "addr:street": "Easter Road", "addr:housenumber": "280", "denotation": null, "name": "Tamsons", "amenity": "pub", "naptan:CommonName": null, "opening_hours": null, "capacity": null, "description": null }, "geometry": { "type": "Point", "coordinates": [ -3.1702564, 55.9645111 ] } },
{ "type": "Feature", "id": -1791966867, "properties": { "id": 2503000429, "addr:street": "Dalkeith Road", "addr:housenumber": "200", "denotation": null, "name": "Grey Horse", "amenity": "pub", "naptan:CommonName": null, "opening_hours": null, "capacity": null, "description": null }, "geometry": { "type": "Point", "coordinates": [ -3.1663036, 55.9331998 ] } },
{ "type": "Feature", "id": -1752696671, "properties": { "id": 2542270625, "addr:street": "Queen Street", "addr:housenumber": "79", "denotation": null, "name": "Panda & Sons", "amenity": "pub", "naptan:CommonName": null, "opening_hours": null, "capacity": null, "description": null }, "geometry": { "type": "Point", "coordinates": [ -3.2069716, 55.9532068 ] } },
{ "type": "Feature", "id": -1739479322, "properties": { "id": 2555487974, "addr:street": "Advocate's Close", "addr:housenumber": "9", "denotation": null, "name": "Devil's Advocate", "amenity": "pub", "naptan:CommonName": null, "opening_hours": "Mo-Su 12:00-01:00", "capacity": null, "description": "bar and restaurant" }, "geometry": { "type": "Point", "coordinates": [ -3.1916383, 55.9503002 ] } },
{ "type": "Feature", "id": -1716262390, "properties": { "id": 2578704906, "addr:street": null, "addr:housenumber": null, "denotation": null, "name": "The Wee Red Bar", "amenity": "pub", "naptan:CommonName": null, "opening_hours": null, "capacity": null, "description": null }, "geometry": { "type": "Point", "coordinates": [ -3.1977595, 55.9458278 ] } },
{ "type": "Feature", "id": -1705614078, "properties": { "id": 2589353218, "addr:street": "Henderson Street", "addr:housenumber": "1", "denotation": null, "name": "Wilkies", "amenity": "pub", "naptan:CommonName": null, "opening_hours": null, "capacity": null, "description": null }, "geometry": { "type": "Point", "coordinates": [ -3.1733748, 55.9716467 ] } },
{ "type": "Feature", "id": -1673732777, "properties": { "id": 2621234519, "addr:street": null, "addr:housenumber": null, "denotation": null, "name": "The Beer House", "amenity": "pub", "naptan:CommonName": null, "opening_hours": "Mo-We 07:00-23:00; Th 08:00-23:00; Fr-Sa 08:00-00:00; Su 12:30-23:00", "capacity": null, "description": null }, "geometry": { "type": "Point", "coordinates": [ -3.1890178, 55.9522424 ] } },
{ "type": "Feature", "id": -1651630603, "properties": { "id": 2643336693, "addr:street": "Grassmarket", "addr:housenumber": "94-96", "denotation": null, "name": "The Wee Pub", "amenity": "pub", "naptan:CommonName": null, "opening_hours": "Mo-Su 08:00-01:00", "capacity": null, "description": null }, "geometry": { "type": "Point", "coordinates": [ -3.1949977, 55.9479383 ] } },
{ "type": "Feature", "id": -1630617343, "properties": { "id": 2664349953, "addr:street": "Great Junction Street", "addr:housenumber": "39", "denotation": null, "name": "Tam O'Shanter", "amenity": "pub", "naptan:CommonName": null, "opening_hours": null, "capacity": null, "description": null }, "geometry": { "type": "Point", "coordinates": [ -3.1729902, 55.9710118 ] } },
{ "type": "Feature", "id": -1610052102, "properties": { "id": 2684915194, "addr:street": null, "addr:housenumber": null, "denotation": null, "name": "Mad Hatter", "amenity": "pub", "naptan:CommonName": null, "opening_hours": null, "capacity": null, "description": null }, "geometry": { "type": "Point", "coordinates": [ -3.2144326, 55.9464428 ] } },
{ "type": "Feature", "id": -1584182812, "properties": { "id": 2710784484, "addr:street": "South Clerk Street", "addr:housenumber": "74-78", "denotation": null, "name": "Diablo Loco", "amenity": "pub", "naptan:CommonName": null, "opening_hours": null, "capacity": null, "description": null }, "geometry": { "type": "Point", "coordinates": [ -3.180222, 55.9396179 ] } },
{ "type": "Feature", "id": -1426928108, "properties": { "id": 2868039188, "addr:street": "Clifton Terrace", "addr:housenumber": "8", "denotation": null, "name": "Platform 5", "amenity": "pub", "naptan:CommonName": null, "opening_hours": null, "capacity": null, "description": null }, "geometry": { "type": "Point", "coordinates": [ -3.2184457, 55.9460012 ] } },
{ "type": "Feature", "id": -1363585218, "properties": { "id": 2931382078, "addr:street": "Fleshmarket Close", "addr:housenumber": "24", "denotation": null, "name": "The Halfway House", "amenity": "pub", "naptan:CommonName": null, "opening_hours": null, "capacity": null, "description": null }, "geometry": { "type": "Point", "coordinates": [ -3.1888797, 55.9509718 ] } },
{ "type": "Feature", "id": -1363585217, "properties": { "id": 2931382079, "addr:street": "Fleshmarket Close", "addr:housenumber": "22", "denotation": null, "name": "The Jinglin' Geordie", "amenity": "pub", "naptan:CommonName": null, "opening_hours": null, "capacity": null, "description": null }, "geometry": { "type": "Point", "coordinates": [ -3.1888514, 55.9509023 ] } },
{ "type": "Feature", "id": -1359023071, "properties": { "id": 2935944225, "addr:street": "Morningside Road", "addr:housenumber": "237", "denotation": null, "name": "The Canny Man's", "amenity": "pub", "naptan:CommonName": null, "opening_hours": null, "capacity": null, "description": null }, "geometry": { "type": "Point", "coordinates": [ -3.2090643, 55.9275788 ] } },
{ "type": "Feature", "id": -1340334213, "properties": { "id": 2954633083, "addr:street": "South Bridge", "addr:housenumber": "4-6", "denotation": null, "name": "Whistlebinkies", "amenity": "pub", "naptan:CommonName": null, "opening_hours": null, "capacity": null, "description": null }, "geometry": { "type": "Point", "coordinates": [ -3.1872649, 55.9499346 ] } },
{ "type": "Feature", "id": -1337756663, "properties": { "id": 2957210633, "addr:street": "St Mary's Street", "addr:housenumber": "3-5", "denotation": null, "name": "The Waverley", "amenity": "pub", "naptan:CommonName": null, "opening_hours": null, "capacity": null, "description": null }, "geometry": { "type": "Point", "coordinates": [ -3.1842655, 55.9504575 ] } },
{ "type": "Feature", "id": -1330729263, "properties": { "id": 2964238033, "addr:street": "High Street", "addr:housenumber": "2-8", "denotation": null, "name": "The World's End", "amenity": "pub", "naptan:CommonName": null, "opening_hours": "Mo-Fr 11:00-01:00; Sa-Su 10:00-01:00", "capacity": null, "description": null }, "geometry": { "type": "Point", "coordinates": [ -3.1843266, 55.950508 ] } },
{ "type": "Feature", "id": -1280162010, "properties": { "id": 3014805286, "addr:street": "Holyrood Road", "addr:housenumber": "9A", "denotation": null, "name": "The Holyrood 9A", "amenity": "pub", "naptan:CommonName": null, "opening_hours": "Mo-Th 09:00-00:00; Fr-Sa 09:00-01:00; Su 09:00-00:00", "capacity": null, "description": null }, "geometry": { "type": "Point", "coordinates": [ -3.1826653, 55.9493591 ] } },
{ "type": "Feature", "id": -1279695353, "properties": { "id": 3015271943, "addr:street": "West Nicolson Street", "addr:housenumber": "32B", "denotation": null, "name": "32Below", "amenity": "pub", "naptan:CommonName": null, "opening_hours": null, "capacity": null, "description": null }, "geometry": { "type": "Point", "coordinates": [ -3.1851474, 55.944553 ] } },
{ "type": "Feature", "id": -1266892720, "properties": { "id": 3028074576, "addr:street": "Canongate", "addr:housenumber": "67", "denotation": null, "name": "The Kilderkin", "amenity": "pub", "naptan:CommonName": null, "opening_hours": null, "capacity": null, "description": null }, "geometry": { "type": "Point", "coordinates": [ -3.1770091, 55.952191 ] } },
{ "type": "Feature", "id": -1251468052, "properties": { "id": 3043499244, "addr:street": "Newington Road", "addr:housenumber": "1-5", "denotation": null, "name": "Southpour", "amenity": "pub", "naptan:CommonName": null, "opening_hours": null, "capacity": null, "description": null }, "geometry": { "type": "Point", "coordinates": [ -3.1791896, 55.9389978 ] } },
{ "type": "Feature", "id": -1249237576, "properties": { "id": 3045729720, "addr:street": "South Clerk Street", "addr:housenumber": "65-67", "denotation": null, "name": "The Abbey", "amenity": "pub", "naptan:CommonName": null, "opening_hours": null, "capacity": null, "description": null }, "geometry": { "type": "Point", "coordinates": [ -3.1795837, 55.9395334 ] } },
{ "type": "Feature", "id": -1235474247, "properties": { "id": 3059493049, "addr:street": "Canongate", "addr:housenumber": "266", "denotation": null, "name": "White Horse", "amenity": "pub", "naptan:CommonName": null, "opening_hours": null, "capacity": null, "description": null }, "geometry": { "type": "Point", "coordinates": [ -3.1835665, 55.9506189 ] } },
{ "type": "Feature", "id": -1235305794, "properties": { "id": 3059661502, "addr:street": "Canongate", "addr:housenumber": "232", "denotation": null, "name": "Canons' Gait", "amenity": "pub", "naptan:CommonName": null, "opening_hours": null, "capacity": null, "description": null }, "geometry": { "type": "Point", "coordinates": [ -3.1824251, 55.9507741 ] } },
{ "type": "Feature", "id": -1180300607, "properties": { "id": 3114666689, "addr:street": "Iona Street", "addr:housenumber": "17", "denotation": null, "name": "The Strathie", "amenity": "pub", "naptan:CommonName": null, "opening_hours": null, "capacity": null, "description": null }, "geometry": { "type": "Point", "coordinates": [ -3.1762959, 55.9639122 ] } },
{ "type": "Feature", "id": -1145994926, "properties": { "id": 3148972370, "addr:street": "George Street", "addr:housenumber": "126-128", "denotation": null, "name": "The Alexander Graham Bell", "amenity": "pub", "naptan:CommonName": null, "opening_hours": "Mo 08:00-00:00; Tu-Sa 08:00-01:00; Su 08:00-00:00", "capacity": null, "description": null }, "geometry": { "type": "Point", "coordinates": [ -3.2053157, 55.9518706 ] } },
{ "type": "Feature", "id": -1128522362, "properties": { "id": 3166444934, "addr:street": "George Street", "addr:housenumber": "62-66", "denotation": null, "name": "The Standing Order", "amenity": "pub", "naptan:CommonName": null, "opening_hours": "Mo-Su 08:00-01:00", "capacity": null, "description": null }, "geometry": { "type": "Point", "coordinates": [ -3.1995774, 55.9529173 ] } },
{ "type": "Feature", "id": -1092025835, "properties": { "id": 3202941461, "addr:street": "Mill Lane", "addr:housenumber": "1-2", "denotation": null, "name": "Gladstones", "amenity": "pub", "naptan:CommonName": null, "opening_hours": null, "capacity": null, "description": null }, "geometry": { "type": "Point", "coordinates": [ -3.1775991, 55.9746361 ] } },
{ "type": "Feature", "id": -1080957312, "properties": { "id": 3214009984, "addr:street": "High Street", "addr:housenumber": "1", "denotation": null, "name": "No.1 High Street", "amenity": "pub", "naptan:CommonName": null, "opening_hours": null, "capacity": null, "description": null }, "geometry": { "type": "Point", "coordinates": [ -3.1844223, 55.9507075 ] } },
{ "type": "Feature", "id": -1057523208, "properties": { "id": 3237444088, "addr:street": "Albert Place", "addr:housenumber": "17", "denotation": null, "name": "The Black Fox", "amenity": "pub", "naptan:CommonName": null, "opening_hours": "Mo-Th 15:00-23:00;Fr 15:00-01:00;Sa 12:00-01:00;Su 12:00-23:00", "capacity": null, "description": null }, "geometry": { "type": "Point", "coordinates": [ -3.1794463, 55.9620252 ] } },
{ "type": "Feature", "id": -1050249373, "properties": { "id": 3244717923, "addr:street": null, "addr:housenumber": null, "denotation": null, "name": "Bainfield Union", "amenity": "pub", "naptan:CommonName": null, "opening_hours": null, "capacity": null, "description": null }, "geometry": { "type": "Point", "coordinates": [ -3.215727, 55.9407112 ] } },
{ "type": "Feature", "id": -996087096, "properties": { "id": 3298880200, "addr:street": "Lothian Road", "addr:housenumber": "81-83", "denotation": null, "name": "Innis & Gunn Beer Kitchen", "amenity": "pub", "naptan:CommonName": null, "opening_hours": null, "capacity": null, "description": null }, "geometry": { "type": "Point", "coordinates": [ -3.205481, 55.9466415 ] } },
{ "type": "Feature", "id": -953324111, "properties": { "id": 3341643185, "addr:street": "Angle Park Terrace", "addr:housenumber": "42-58", "denotation": null, "name": "The Caley Sample Room", "amenity": "pub", "naptan:CommonName": null, "opening_hours": "Mo-Th 12:00-00:00; Fr 12:00-01:00; Sa 10:00-01:00; Su 10:00-00:00", "capacity": null, "description": null }, "geometry": { "type": "Point", "coordinates": [ -3.2258211, 55.937689 ] } },
{ "type": "Feature", "id": -939199421, "properties": { "id": 3355767875, "addr:street": "Restalrig Road South", "addr:housenumber": "79", "denotation": null, "name": "Bunch o' Roses", "amenity": "pub", "naptan:CommonName": null, "opening_hours": null, "capacity": null, "description": null }, "geometry": { "type": "Point", "coordinates": [ -3.1499771, 55.959112 ] } },
{ "type": "Feature", "id": -860351813, "properties": { "id": 3434615483, "addr:street": "Cadzow Place", "addr:housenumber": null, "denotation": null, "name": "The Safari Lounge", "amenity": "pub", "naptan:CommonName": null, "opening_hours": null, "capacity": null, "description": null }, "geometry": { "type": "Point", "coordinates": [ -3.1677089, 55.9571419 ] } },
{ "type": "Feature", "id": -211955669, "properties": { "id": 4083011627, "addr:street": "Raeburn Place", "addr:housenumber": "112", "denotation": null, "name": "The Raeburn", "amenity": "pub", "naptan:CommonName": null, "opening_hours": null, "capacity": null, "description": null }, "geometry": { "type": "Point", "coordinates": [ -3.2148247, 55.959499 ] } },
{ "type": "Feature", "id": -8108606, "properties": { "id": 4286858690, "addr:street": "Merchant Street", "addr:housenumber": "7", "denotation": null, "name": "Dropkick Murphys", "amenity": "pub", "naptan:CommonName": null, "opening_hours": null, "capacity": null, "description": null }, "geometry": { "type": "Point", "coordinates": [ -3.1913738, 55.9478427 ] } },
{ "type": "Feature", "id": 90913594, "properties": { "id": 4385880890, "addr:street": null, "addr:housenumber": null, "denotation": null, "name": "The Sports Bar", "amenity": "pub", "naptan:CommonName": null, "opening_hours": null, "capacity": null, "description": null }, "geometry": { "type": "Point", "coordinates": [ -3.1888831, 55.9447637 ] } },
{ "type": "Feature", "id": 331380994, "properties": { "id": 4626348290, "addr:street": "Belhaven Terrace", "addr:housenumber": "7-8", "denotation": null, "name": "The Waiting Room", "amenity": "pub", "naptan:CommonName": null, "opening_hours": "Mo 10:00-23:00; Tu-Th 10:00-00:00; Fr-Sa 10:00-01:30; Su 10:00-00:00", "capacity": null, "description": null }, "geometry": { "type": "Point", "coordinates": [ -3.2104064, 55.9253351 ] } },
{ "type": "Feature", "id": 1509560836, "properties": { "id": 5804528132, "addr:street": null, "addr:housenumber": null, "denotation": null, "name": "Sonder", "amenity": "pub", "naptan:CommonName": null, "opening_hours": null, "capacity": null, "description": null }, "geometry": { "type": "Point", "coordinates": [ -3.180222, 55.9396179 ] } },
{ "type": "Feature", "id": 1677066711, "properties": { "id": 5972034007, "addr:street": "67 St Leonard's Hill", "addr:housenumber": null, "denotation": null, "name": "Jeanie Deans", "amenity": "pub", "naptan:CommonName": null, "opening_hours": "Mo-We, Su 12:30-23:00, 09:00-18:00; Th-Sa 12:00-23:00", "capacity": null, "description": null }, "geometry": { "type": "Point", "coordinates": [ -3.1781795, 55.9434608 ] } }
]
}
